{"type":"FeatureCollection","features":[{"type":"Feature","properties":{},"geometry":{"type":"MultiLineString","coordinates":[[[-85.6052,34.9847],[-86.3972,34.9917],[-86.8621,34.992],[-87.3913,35.0024],[-88.203,35.008],[-88.2001,34.9956],[-89.8834,34.9943],[-90.3084,34.9957],[-90.3105,35.0027],[-90.297,35.0382],[-90.2923,35.0414],[-90.2648,35.0404],[-90.2518,35.0316],[-90.243,35.0327],[-90.2073,35.0258],[-90.1865,35.0454],[-90.1776,35.0638],[-90.175,35.0761],[-90.181,35.085],[-90.1814,35.094],[-90.1768,35.1121],[-90.1674,35.1236],[-90.1547,35.1309],[-90.1418,35.133],[-90.095,35.1175],[-90.0826,35.1213],[-90.0652,35.1394],[-90.0654,35.1514],[-90.0687,35.156],[-90.1014,35.1711],[-90.1081,35.1816],[-90.1167,35.1869],[-90.1161,35.1986],[-90.1087,35.1993],[-90.0965,35.1948],[-90.0886,35.2123],[-90.0807,35.2085],[-90.0755,35.214],[-90.0762,35.2215],[-90.0926,35.2468],[-90.1121,35.2557],[-90.1397,35.2523],[-90.1521,35.256],[-90.1688,35.2791],[-90.1638,35.2961],[-90.1573,35.3015],[-90.1485,35.3029],[-90.1395,35.2988],[-90.1237,35.3045],[-90.11,35.305],[-90.0962,35.3489],[-90.0783,35.3749],[-90.0807,35.3857],[-90.1023,35.3997],[-90.1116,35.4096],[-90.1293,35.4138],[-90.1393,35.4105],[-90.1462,35.3995],[-90.1435,35.3876],[-90.1355,35.3767],[-90.1653,35.374],[-90.1793,35.3852],[-90.1689,35.4219],[-90.1294,35.4421],[-90.12,35.4666],[-90.1077,35.4769],[-90.079,35.4769],[-90.0678,35.4662],[-90.0741,35.434],[-90.0705,35.4233],[-90.062,35.4152],[-90.0695,35.4081],[-90.0543,35.3893],[-90.0416,35.3966],[-90.0568,35.4039],[-90.0481,35.4117],[-90.0212,35.4202],[-90.0033,35.4296],[-90.004,35.4432],[-90.0119,35.4626],[-90.0197,35.4731],[-90.0351,35.4827],[-90.0477,35.5026],[-90.0491,35.5223],[-90.0398,35.5471],[-90.0345,35.5526],[-90.0083,35.5601],[-89.9916,35.5606],[-89.9585,35.5417],[-89.9556,35.5345],[-89.9587,35.5238],[-89.9244,35.5113],[-89.9119,35.5128],[-89.9046,35.5193],[-89.9024,35.525],[-89.9044,35.5359],[-89.9132,35.5367],[-89.9107,35.5475],[-89.942,35.5569],[-89.9542,35.5758],[-89.9579,35.5873],[-89.9511,35.5975],[-89.9325,35.608],[-89.9113,35.6176],[-89.8903,35.6164],[-89.8566,35.6344],[-89.8518,35.6443],[-89.8512,35.6574],[-89.8622,35.6704],[-89.8764,35.6667],[-89.887,35.6536],[-89.8989,35.6509],[-89.9274,35.6595],[-89.9557,35.6901],[-89.9583,35.7266],[-89.9403,35.7391],[-89.9383,35.7439],[-89.912,35.7583],[-89.9062,35.7589],[-89.8941,35.7508],[-89.8631,35.7571],[-89.8524,35.7554],[-89.8505,35.7469],[-89.8468,35.7441],[-89.839,35.7421],[-89.8255,35.7452],[-89.799,35.7594],[-89.7969,35.7814],[-89.7996,35.7883],[-89.7817,35.8052],[-89.7654,35.8112],[-89.7282,35.8027],[-89.6965,35.8206],[-89.6935,35.8317],[-89.6974,35.8367],[-89.7621,35.8572],[-89.7739,35.8677],[-89.7717,35.8837],[-89.7672,35.8909],[-89.7431,35.9112],[-89.7278,35.9112],[-89.7149,35.9062],[-89.6764,35.8767],[-89.6691,35.8745],[-89.6579,35.8767],[-89.6436,35.8897],[-89.641,35.907],[-89.6443,35.9209],[-89.654,35.9302],[-89.7185,35.9631],[-89.724,35.9808],[-89.7229,35.9891],[-89.7331,36.0008],[-89.7069,36.001],[-89.6886,36.0292],[-89.6788,36.0846],[-89.6666,36.0958],[-89.6283,36.1069],[-89.6019,36.1195],[-89.5931,36.1297],[-89.5922,36.1501],[-89.607,36.1712],[-89.6926,36.225],[-89.7045,36.2355],[-89.7053,36.2399],[-89.6952,36.2528],[-89.678,36.2483],[-89.6422,36.2495],[-89.6024,36.2381],[-89.5775,36.2423],[-89.5622,36.2509],[-89.5447,36.2475],[-89.5347,36.2526],[-89.5355,36.2705],[-89.5395,36.2774],[-89.5448,36.2805],[-89.5543,36.2778],[-89.5785,36.2883],[-89.6118,36.3091],[-89.6203,36.323],[-89.6158,36.3361],[-89.6057,36.3422],[-89.5816,36.3424],[-89.545,36.3368],[-89.5318,36.3392],[-89.519,36.3486],[-89.5132,36.3599],[-89.5104,36.3784],[-89.5453,36.4271],[-89.5434,36.4388],[-89.5252,36.454],[-89.5197,36.467],[-89.5206,36.4787],[-89.5392,36.4979],[-89.4854,36.4975],[-89.4935,36.4787],[-89.4932,36.4701],[-89.4862,36.4616],[-89.4717,36.457],[-89.4604,36.4581],[-89.4485,36.4644],[-89.4293,36.4819],[-89.4173,36.499],[-89.3003,36.5071],[-88.9645,36.5022],[-88.0532,36.4971],[-88.0378,36.5138],[-88.0325,36.5407],[-88.0451,36.6029],[-88.057,36.6405],[-88.0682,36.6597],[-88.0705,36.6781],[-88.0118,36.677],[-87.8496,36.6637],[-87.8532,36.6332],[-87.425,36.641],[-87.0115,36.6439],[-86.5899,36.6525],[-86.5641,36.6335],[-86.5513,36.638],[-86.5501,36.6448],[-86.5434,36.6439],[-86.5438,36.6405],[-86.5078,36.6524],[-86.3331,36.6488],[-86.0328,36.6304],[-85.8322,36.622],[-85.4884,36.615],[-85.2906,36.6264],[-85.1954,36.6255],[-85.0246,36.6194],[-84.8431,36.6051],[-84.5431,36.5963],[-83.9878,36.5896],[-83.6907,36.5826],[-83.6754,36.6008]],[[-81.4441,30.7097],[-81.4726,30.7133],[-81.4873,30.7261],[-81.5161,30.7222],[-81.5312,30.7242],[-81.5342,30.721],[-81.5338,30.7121],[-81.5384,30.7087],[-81.5493,30.7183],[-81.5607,30.7117],[-81.5638,30.7177],[-81.5737,30.7223],[-81.5868,30.7237],[-81.5938,30.7185],[-81.5971,30.7193],[-81.5965,30.7273],[-81.6009,30.7294],[-81.6043,30.7289],[-81.6058,30.7197],[-81.6107,30.7162],[-81.6151,30.7227],[-81.6235,30.7247],[-81.6208,30.7316],[-81.6244,30.7363],[-81.6283,30.7354],[-81.6307,30.7281],[-81.635,30.7333],[-81.6461,30.7276],[-81.6531,30.7298],[-81.6523,30.7431],[-81.6627,30.743],[-81.6598,30.7494],[-81.6633,30.7544],[-81.6831,30.7485],[-81.6793,30.7447],[-81.6725,30.7484],[-81.6688,30.7425],[-81.6728,30.7389],[-81.6884,30.7415],[-81.6948,30.7484],[-81.7199,30.7446],[-81.7328,30.7505],[-81.7323,30.7553],[-81.742,30.7591],[-81.7408,30.765],[-81.7549,30.7687],[-81.7617,30.7757],[-81.7713,30.7763],[-81.7719,30.7638],[-81.7822,30.7613],[-81.7867,30.7698],[-81.7837,30.7729],[-81.7944,30.787],[-81.7985,30.7823],[-81.8074,30.7901],[-81.8392,30.7866],[-81.8412,30.7923],[-81.8456,30.7907],[-81.8535,30.7946],[-81.8683,30.7929],[-81.8704,30.7975],[-81.8815,30.7999],[-81.8848,30.8115],[-81.8915,30.8168],[-81.8929,30.8255],[-81.9014,30.8299],[-81.9073,30.8256],[-81.9045,30.8177],[-81.9109,30.8161],[-81.927,30.8176],[-81.9328,30.8204],[-81.937,30.8285],[-81.9437,30.826],[-81.9495,30.8279],[-81.9639,30.8181],[-81.9629,30.7958],[-81.97,30.7891],[-81.9734,30.7788],[-81.9834,30.7781],[-82.0081,30.7921],[-82.022,30.7882],[-82.0233,30.7827],[-82.0114,30.7626],[-82.0188,30.7546],[-82.0271,30.7511],[-82.0319,30.7505],[-82.0368,30.7544],[-82.0394,30.7372],[-82.0448,30.7285],[-82.0392,30.7232],[-82.0364,30.7066],[-82.043,30.6983],[-82.0435,30.6847],[-82.0504,30.6763],[-82.047,30.6659],[-82.0495,30.6555],[-82.0423,30.6495],[-82.0399,30.6371],[-82.0285,30.6218],[-82.0273,30.6067],[-82.0157,30.6017],[-82.0055,30.5635],[-82.0132,30.5501],[-82.0184,30.5312],[-82.0148,30.513],[-82.0178,30.4751],[-82.0237,30.4673],[-82.0282,30.4474],[-82.0372,30.4345],[-82.034,30.4224],[-82.04,30.4143],[-82.042,30.4033],[-82.0359,30.3853],[-82.0368,30.3779],[-82.0479,30.3633],[-82.06,30.3603],[-82.0947,30.3608],[-82.1048,30.3683],[-82.1433,30.3634],[-82.1618,30.3579],[-82.1715,30.3599],[-82.1846,30.3772],[-82.1929,30.3788],[-82.1923,30.3846],[-82.2042,30.4013],[-82.2103,30.4246],[-82.2099,30.4328],[-82.204,30.4445],[-82.2077,30.4605],[-82.2009,30.4744],[-82.2014,30.4852],[-82.2269,30.5103],[-82.2308,30.5268],[-82.2404,30.5378],[-82.2389,30.5454],[-82.2344,30.549],[-82.2344,30.5566],[-82.2148,30.5686],[-83.4999,30.6457],[-84.2499,30.6841],[-84.8647,30.7115],[-84.8698,30.7219],[-84.8838,30.7326],[-84.8875,30.7418],[-84.8961,30.7506],[-84.9135,30.7523],[-84.915,30.7612],[-84.9201,30.766],[-84.918,30.7781],[-84.9283,30.7931],[-84.9283,30.8051],[-84.9374,30.8209],[-84.9357,30.834],[-84.9257,30.8427],[-84.9366,30.859],[-84.9325,30.8632],[-84.9393,30.8715],[-84.9349,30.8845],[-84.9425,30.8885],[-84.9667,30.9173],[-84.971,30.9282],[-84.9831,30.9348],[-84.9796,30.9547],[-84.9825,30.9656],[-85.0051,30.9747],[-84.9994,31.0138],[-85.0094,31.0324],[-85.0114,31.0535],[-85.0286,31.0746],[-85.0261,31.0842],[-85.0356,31.1082],[-85.0547,31.1208],[-85.064,31.1425],[-85.0766,31.1569],[-85.0921,31.1603],[-85.1002,31.1655],[-85.0985,31.1802],[-85.1075,31.1865],[-85.107,31.2027],[-85.0987,31.2113],[-85.0968,31.2257],[-85.1124,31.2596],[-85.1119,31.2725],[-85.1146,31.2773],[-85.1103,31.2817],[-85.0991,31.2842],[-85.0898,31.295],[-85.0838,31.3182],[-85.0842,31.3283],[-85.0894,31.336],[-85.0859,31.3531],[-85.0918,31.3552],[-85.0922,31.3646],[-85.0776,31.3989],[-85.08,31.4105],[-85.0755,31.4248],[-85.0659,31.4306],[-85.0716,31.4684],[-85.0657,31.4841],[-85.045,31.5182],[-85.0483,31.526],[-85.0413,31.541],[-85.058,31.5708],[-85.0553,31.5771],[-85.0584,31.5837],[-85.056,31.6052],[-85.0606,31.6082],[-85.0582,31.6202],[-85.0845,31.639],[-85.0823,31.6504],[-85.0785,31.6517],[-85.0799,31.6553],[-85.0924,31.66],[-85.1094,31.6775],[-85.1139,31.6869],[-85.1255,31.695],[-85.1265,31.7168],[-85.1189,31.7327],[-85.1292,31.7587],[-85.1252,31.7671],[-85.1419,31.782],[-85.1329,31.7924],[-85.1313,31.8176],[-85.1331,31.8287],[-85.1418,31.8393],[-85.1377,31.8459],[-85.1407,31.8575],[-85.1284,31.8776],[-85.1341,31.8922],[-85.112,31.8948],[-85.1098,31.9081],[-85.1131,31.9119],[-85.1024,31.9174],[-85.0995,31.9253],[-85.0789,31.9402],[-85.0867,31.9592],[-85.0678,31.9674],[-85.0659,31.9725],[-85.0709,31.9817],[-85.068,31.9934],[-85.0634,32.0041],[-85.0551,32.0107],[-85.0537,32.0207],[-85.0493,32.0227],[-85.0563,32.0283],[-85.0548,32.0388],[-85.0588,32.0467],[-85.0542,32.068],[-85.0558,32.0744],[-85.0455,32.0869],[-85.0611,32.1341],[-85.0456,32.1438],[-85.0113,32.1805],[-84.9646,32.1952],[-84.9617,32.1987],[-84.9632,32.2022],[-84.9746,32.2037],[-84.9802,32.2078],[-84.9721,32.2183],[-84.9282,32.2199],[-84.9127,32.2433],[-84.9172,32.246],[-84.923,32.2445],[-84.9244,32.2498],[-84.9072,32.249],[-84.9015,32.2574],[-84.8891,32.2609],[-84.9229,32.2853],[-84.9338,32.2983],[-85.0019,32.322],[-85.0071,32.3284],[-85.0081,32.3367],[-85.0046,32.3452],[-84.9835,32.3632],[-84.9863,32.3697],[-84.9841,32.3735],[-84.9743,32.3746],[-84.972,32.3777],[-84.9863,32.3803],[-84.9886,32.3841],[-84.9834,32.3918],[-84.9687,32.3915],[-84.9811,32.4028],[-84.9794,32.4122],[-84.963,32.4242],[-84.9718,32.4428],[-84.9838,32.4456],[-84.9953,32.4532],[-84.9982,32.4698],[-84.9948,32.486],[-85.0015,32.5147],[-85.0071,32.5239],[-85.0138,32.5261],[-85.0225,32.5429],[-85.0321,32.5454],[-85.0348,32.552],[-85.0597,32.5767],[-85.0675,32.5795],[-85.0803,32.6036],[-85.0822,32.6163],[-85.0894,32.6254],[-85.0824,32.6338],[-85.0836,32.636],[-85.0966,32.6347],[-85.1053,32.6448],[-85.0885,32.6578],[-85.0935,32.6697],[-85.1126,32.6834],[-85.117,32.692],[-85.119,32.7101],[-85.1227,32.7157],[-85.1133,32.7358],[-85.1185,32.7408],[-85.1322,32.7444],[-85.1426,32.7607],[-85.1374,32.7691],[-85.1222,32.7734],[-85.1262,32.7792],[-85.1393,32.7849],[-85.1419,32.7918],[-85.1519,32.7941],[-85.1679,32.8116],[-85.1641,32.8213],[-85.168,32.8292],[-85.1606,32.8382],[-85.1546,32.8398],[-85.1559,32.8499],[-85.1623,32.8565],[-85.1701,32.8525],[-85.1771,32.8539],[-85.1844,32.8613],[-85.1841,32.8705],[-85.4295,34.1251],[-85.5614,34.7501],[-85.6052,34.9847]],[[-85.6052,34.9847],[-85.385,34.983],[-84.9393,34.9879],[-84.3219,34.9884]],[[-84.3219,34.9884],[-84.2902,35.2256],[-84.2832,35.2266],[-84.2754,35.2348],[-84.243,35.2532],[-84.2237,35.2691],[-84.2118,35.2661],[-84.2029,35.2558],[-84.2001,35.2447],[-84.1884,35.24],[-84.1785,35.2407],[-84.1704,35.2458],[-84.1613,35.2435],[-84.1431,35.2469],[-84.1279,35.2411],[-84.1256,35.2494],[-84.1189,35.2523],[-84.1133,35.249],[-84.1067,35.2515],[-84.0981,35.2472],[-84.0811,35.2611],[-84.0526,35.27],[-84.036,35.2887],[-84.0235,35.2958],[-84.0214,35.3014],[-84.0265,35.3093],[-84.0357,35.3129],[-84.0294,35.3332],[-84.0362,35.3377],[-84.034,35.3428],[-84.0383,35.3478],[-84.0325,35.3526],[-84.0235,35.3542],[-84.0076,35.3717],[-84.0112,35.3844],[-84.0082,35.3904],[-84.0188,35.3998],[-84.023,35.4117],[-84.0147,35.412],[-83.9999,35.4252],[-83.9926,35.4381],[-83.9731,35.4489],[-83.9714,35.4551],[-83.9652,35.4554],[-83.9611,35.4641],[-83.9494,35.4612],[-83.937,35.4715],[-83.9118,35.476],[-83.9056,35.4891],[-83.9003,35.4931],[-83.9014,35.4966],[-83.8921,35.5031],[-83.8801,35.5187],[-83.8593,35.5219],[-83.8485,35.5193],[-83.8319,35.5248],[-83.8256,35.5238],[-83.8024,35.5416],[-83.7801,35.5504],[-83.7717,35.5621],[-83.7569,35.5636],[-83.7499,35.5611],[-83.7357,35.5655],[-83.7235,35.5619],[-83.7072,35.5685],[-83.6763,35.5703],[-83.6405,35.5661],[-83.6297,35.5679],[-83.6089,35.5795],[-83.5943,35.5729],[-83.5856,35.5629],[-83.5661,35.566],[-83.4983,35.563],[-83.4855,35.5682],[-83.4785,35.5792],[-83.4791,35.5833],[-83.4557,35.598],[-83.4458,35.6118],[-83.4216,35.6112],[-83.3966,35.6227],[-83.3887,35.6336],[-83.3669,35.6387],[-83.3562,35.65],[-83.3516,35.6599],[-83.335,35.6655],[-83.3211,35.6628],[-83.3128,35.6548],[-83.2972,35.6578],[-83.2892,35.6745],[-83.2714,35.6815],[-83.2581,35.6919],[-83.2556,35.6961],[-83.2554,35.7162],[-83.2512,35.7199],[-83.2435,35.7225],[-83.2407,35.7268],[-83.2145,35.7244],[-83.1857,35.7299],[-83.1775,35.7439],[-83.1702,35.7461],[-83.1648,35.7546],[-83.1649,35.76],[-83.1592,35.7649],[-83.1277,35.7681],[-83.1202,35.7662],[-83.074,35.79],[-83.064,35.7866],[-83.0527,35.7895],[-83.0441,35.7853],[-83.0362,35.7874],[-83.0061,35.7784],[-83.0015,35.7738],[-82.9921,35.7739],[-82.9696,35.7897],[-82.9641,35.79],[-82.9617,35.8005],[-82.9455,35.8247],[-82.9374,35.8273],[-82.9319,35.8364],[-82.9166,35.8414],[-82.921,35.8511],[-82.9206,35.8685],[-82.9013,35.8726],[-82.8973,35.8779],[-82.8963,35.8803],[-82.9036,35.8804],[-82.9065,35.8841],[-82.9018,35.8929],[-82.9084,35.9051],[-82.9069,35.9074],[-82.9145,35.9152],[-82.9117,35.9168],[-82.9133,35.9241],[-82.92,35.9284],[-82.9016,35.9274],[-82.899,35.9304],[-82.9017,35.9377],[-82.8985,35.9451],[-82.8742,35.9527],[-82.8607,35.9474],[-82.8498,35.9478],[-82.8289,35.9329],[-82.8219,35.9218],[-82.805,35.9272],[-82.8028,35.9301],[-82.8059,35.9379],[-82.7875,35.9522],[-82.7845,35.9639],[-82.7778,35.9669],[-82.7749,35.972],[-82.7856,35.9778],[-82.7853,35.9879],[-82.776,36.0001],[-82.7501,36.006],[-82.7319,36.0176],[-82.716,36.0228],[-82.7152,36.0286],[-82.6889,36.0386],[-82.6836,36.0461],[-82.6502,36.0578],[-82.6372,36.0658],[-82.6323,36.0657],[-82.6187,36.0561],[-82.6182,36.047],[-82.6097,36.0449],[-82.6018,36.036],[-82.591,36.0336],[-82.6018,36.0243],[-82.6029,36.0179],[-82.6083,36.0153],[-82.6085,36.0083],[-82.6144,36.0035],[-82.613,35.994],[-82.6069,35.9922],[-82.6042,35.9873],[-82.6109,35.9744],[-82.6109,35.9674],[-82.6004,35.9646],[-82.581,35.9656],[-82.5752,35.9584],[-82.5579,35.9539],[-82.5497,35.9643],[-82.5313,35.9722],[-82.5054,35.9777],[-82.4847,35.9928],[-82.4823,35.9978],[-82.4607,36.0078],[-82.4095,36.0834],[-82.3552,36.1156],[-82.3368,36.1149],[-82.3214,36.1196],[-82.3029,36.1313],[-82.2895,36.1357],[-82.2804,36.1288],[-82.2687,36.127],[-82.2604,36.1337],[-82.2475,36.1309],[-82.2249,36.15],[-82.2221,36.1569],[-82.2139,36.1591],[-82.192,36.1488],[-82.1875,36.1511],[-82.1837,36.1444],[-82.1768,36.1422],[-82.1721,36.1464],[-82.1479,36.1495],[-82.1365,36.1288],[-82.138,36.1196],[-82.1271,36.1044],[-82.1054,36.1081],[-82.0801,36.1057],[-82.0613,36.1131],[-82.0541,36.1268],[-82.0331,36.1204],[-81.9081,36.302],[-81.8794,36.3138],[-81.8573,36.3348],[-81.8413,36.3433],[-81.8129,36.3511],[-81.7936,36.3622],[-81.7894,36.3482],[-81.7789,36.3486],[-81.7649,36.3387],[-81.7445,36.3378],[-81.736,36.343],[-81.7183,36.3361],[-81.7074,36.3352],[-81.7053,36.3419],[-81.7078,36.346],[-81.7215,36.3512],[-81.7261,36.3689],[-81.7346,36.3796],[-81.7286,36.3912],[-81.7387,36.3948],[-81.742,36.411],[-81.7343,36.4126],[-81.7207,36.4225],[-81.7176,36.4304],[-81.7212,36.4339],[-81.7146,36.4371],[-81.7174,36.4452],[-81.7137,36.4471],[-81.7149,36.4572],[-81.6953,36.4679],[-81.6959,36.4916],[-81.7002,36.5005],[-81.6977,36.5084],[-81.7076,36.5261],[-81.708,36.5362],[-81.7,36.5368],[-81.6975,36.5444],[-81.69,36.5522],[-81.6925,36.5657],[-81.6902,36.5687],[-81.677,36.5707],[-81.6801,36.5855],[-81.6775,36.5881]],[[-84.3219,34.9884],[-83.62,34.9866],[-83.6202,34.9921],[-83.1096,35.0012]],[[-83.6754,36.6008],[-83.5568,36.5974],[-83.2763,36.5982],[-83.2489,36.5938],[-81.9341,36.5942],[-81.9226,36.6162],[-81.6469,36.6119],[-81.6775,36.5881]],[[-83.6754,36.6008],[-83.6731,36.6047],[-83.6636,36.6068],[-83.6495,36.6167],[-83.6452,36.6242],[-83.6289,36.6241],[-83.6079,36.6371],[-83.586,36.6438],[-83.5773,36.6418],[-83.5626,36.6513],[-83.5418,36.6566],[-83.5296,36.6662],[-83.498,36.6705],[-83.4665,36.6647],[-83.4237,36.6674],[-83.3958,36.6768],[-83.3861,36.6866],[-83.3114,36.7103],[-83.2555,36.7218],[-83.1946,36.7395],[-83.1364,36.7431],[-83.1278,36.7508],[-83.1288,36.7579],[-83.1257,36.7614],[-83.1325,36.7644],[-83.1289,36.7699],[-83.1327,36.7715],[-83.129,36.7758],[-83.1332,36.7846],[-83.1191,36.7895],[-83.1031,36.8067],[-83.0985,36.8143],[-83.1018,36.8291],[-83.087,36.8382],[-83.0752,36.8409],[-83.0756,36.8506],[-83.0726,36.8546],[-83.0476,36.8518],[-83.0269,36.8555],[-83.0219,36.85],[-83.0092,36.8473],[-82.9984,36.8566],[-82.9792,36.8597],[-82.9703,36.8577],[-82.9517,36.8662],[-82.9376,36.8673],[-82.9224,36.8739],[-82.9078,36.8747],[-82.9063,36.8797],[-82.8786,36.8896],[-82.8786,36.894],[-82.8701,36.9017],[-82.8775,36.908],[-82.858,36.9295],[-82.8613,36.9448],[-82.8557,36.9538],[-82.8654,36.9581],[-82.8702,36.9655],[-82.8675,36.9775],[-82.8629,36.98],[-82.8579,36.9783],[-82.8537,36.9852],[-82.845,36.9838],[-82.836,36.9888],[-82.8308,36.9934],[-82.8286,37.0057],[-82.8227,37.0041],[-82.7975,37.0097],[-82.7934,37.0055],[-82.7821,37.0082],[-82.7774,37.0153],[-82.7718,37.0157],[-82.7592,37.0273],[-82.748,37.0252],[-82.7425,37.043],[-82.7336,37.0445],[-82.7263,37.0421],[-82.7225,37.0451],[-82.7223,37.0579],[-82.727,37.073],[-82.7167,37.0772],[-82.725,37.0919],[-82.7216,37.1013],[-82.7264,37.115],[-82.7221,37.1202],[-82.6846,37.1358],[-82.6768,37.135],[-82.6677,37.1419],[-82.6575,37.145],[-82.6533,37.1513],[-82.6335,37.1543],[-82.6174,37.1681],[-82.5974,37.1771],[-82.5925,37.1828],[-82.5504,37.2045],[-82.5458,37.2031],[-82.5316,37.2092],[-82.5287,37.2137],[-82.5201,37.2129],[-82.4989,37.227],[-82.4915,37.2251],[-82.4864,37.2312],[-82.457,37.2383],[-82.4492,37.2439],[-82.3509,37.2671],[-82.3421,37.2741],[-82.3418,37.2809],[-82.3246,37.2832],[-82.3094,37.3001],[-81.968,37.538]],[[-78.5473,33.8565],[-79.2498,34.4498],[-79.3583,34.5454],[-79.6753,34.8047],[-80.7975,34.8198],[-80.782,34.9358],[-80.935,35.1074],[-81.0415,35.0447],[-81.0576,35.0624],[-81.058,35.0732],[-81.0572,35.0861],[-81.0521,35.0963],[-81.0374,35.1025],[-81.0328,35.108],[-81.039,35.1263],[-81.051,35.1317],[-81.0436,35.1499],[-81.7163,35.1789],[-82.1769,35.1938],[-82.2749,35.2001],[-82.3149,35.1911],[-82.3234,35.1848],[-82.3305,35.1868],[-82.333,35.1906],[-82.3395,35.1889],[-82.3446,35.1931],[-82.3615,35.1908],[-82.3643,35.1847],[-82.3713,35.1814],[-82.3822,35.1896],[-82.3787,35.1981],[-82.384,35.2105],[-82.3929,35.2154],[-82.4033,35.2045],[-82.4197,35.1986],[-82.428,35.1832],[-82.4268,35.1789],[-82.4307,35.1783],[-82.4347,35.1683],[-82.4396,35.1659],[-82.4571,35.1639],[-82.4516,35.1727],[-82.4543,35.1774],[-82.4601,35.1781],[-82.468,35.1746],[-82.4839,35.1738],[-82.4985,35.163],[-82.5037,35.1659],[-82.5079,35.1624],[-82.516,35.1634],[-82.53,35.1556],[-82.5365,35.1548],[-82.5367,35.1601],[-82.5464,35.1637],[-82.5558,35.1593],[-82.5533,35.1535],[-82.5638,35.1516],[-82.5699,35.1453],[-82.5807,35.1417],[-82.5882,35.1429],[-82.5981,35.1377],[-82.6124,35.1382],[-82.6212,35.1346],[-82.629,35.1262],[-82.6362,35.1255],[-82.6365,35.1304],[-82.641,35.1323],[-82.6453,35.1268],[-82.6522,35.126],[-82.6535,35.122],[-82.6624,35.1181],[-82.669,35.1206],[-82.6733,35.1175],[-82.6746,35.1264],[-82.6814,35.1279],[-82.6871,35.1251],[-82.6867,35.1198],[-82.6936,35.1169],[-82.6946,35.1147],[-82.6865,35.1082],[-82.6977,35.0957],[-82.7005,35.1008],[-82.7153,35.0929],[-82.727,35.0941],[-82.7384,35.0795],[-82.7518,35.0799],[-82.7513,35.0735],[-82.7577,35.068],[-82.7774,35.0641],[-82.782,35.0668],[-82.7764,35.0813],[-82.7879,35.085],[-83.1096,35.0012]],[[-83.1096,35.0012],[-83.0984,34.9911],[-83.1071,34.9832],[-83.1058,34.9815],[-83.1113,34.981],[-83.1109,34.9763],[-83.1166,34.9753],[-83.1221,34.9643],[-83.1159,34.9603],[-83.12,34.9575],[-83.114,34.9509],[-83.1266,34.9549],[-83.1249,34.9514],[-83.1276,34.9495],[-83.1216,34.9425],[-83.1169,34.9427],[-83.1128,34.9347],[-83.1181,34.936],[-83.1208,34.933],[-83.1276,34.9385],[-83.1316,34.9359],[-83.1306,34.9309],[-83.1406,34.9249],[-83.1562,34.931],[-83.1592,34.9288],[-83.1572,34.9149],[-83.1691,34.9188],[-83.1751,34.9101],[-83.1808,34.9096],[-83.1809,34.9047],[-83.1893,34.8973],[-83.1944,34.8996],[-83.1968,34.8907],[-83.2031,34.8939],[-83.2048,34.8908],[-83.201,34.8848],[-83.2063,34.8797],[-83.2147,34.8838],[-83.2145,34.8885],[-83.2199,34.8781],[-83.2431,34.8774],[-83.2405,34.8727],[-83.2347,34.8707],[-83.2386,34.8655],[-83.2467,34.867],[-83.2469,34.855],[-83.2533,34.8559],[-83.2538,34.8481],[-83.2486,34.8461],[-83.2502,34.8446],[-83.2606,34.8452],[-83.2609,34.8482],[-83.2663,34.849],[-83.2724,34.8347],[-83.2673,34.8324],[-83.2683,34.8211],[-83.2767,34.8169],[-83.2887,34.8247],[-83.2946,34.8136],[-83.3,34.8152],[-83.3006,34.8187],[-83.3067,34.8148],[-83.2998,34.8101],[-83.3012,34.804],[-83.3138,34.7999],[-83.3138,34.7968],[-83.3239,34.7897],[-83.319,34.7713],[-83.323,34.7661],[-83.3193,34.7649],[-83.3232,34.7606],[-83.3189,34.7583],[-83.3259,34.7565],[-83.3263,34.7508],[-83.3324,34.749],[-83.339,34.7384],[-83.3491,34.7366],[-83.3534,34.7284],[-83.3528,34.7174],[-83.3466,34.7042],[-83.3539,34.6992],[-83.3401,34.6915],[-83.3382,34.6872],[-83.3426,34.683],[-83.3389,34.68],[-83.3253,34.6795],[-83.3144,34.6689],[-83.3046,34.6696],[-83.2932,34.6543],[-83.2709,34.6416],[-83.2545,34.6371],[-83.2465,34.6269],[-83.2407,34.6245],[-83.2435,34.6182],[-83.2313,34.6112],[-83.2088,34.6107],[-83.1991,34.608],[-83.1974,34.6032],[-83.1808,34.6075],[-83.1697,34.6074],[-83.16,34.6035],[-83.1607,34.5995],[-83.1701,34.5996],[-83.1703,34.5924],[-83.1546,34.5882],[-83.1587,34.579],[-83.1432,34.5734],[-83.1405,34.5624],[-83.1229,34.5601],[-83.1243,34.555],[-83.1102,34.5471],[-83.1086,34.5415],[-83.1035,34.5386],[-83.1029,34.5326],[-83.0849,34.531],[-83.0778,34.5241],[-83.0872,34.5159],[-83.0798,34.5145],[-83.074,34.5055],[-83.0658,34.501],[-83.0545,34.5029],[-83.051,34.4935],[-83.0334,34.4831],[-83.0293,34.4841],[-82.9951,34.4725],[-82.9927,34.4791],[-82.9797,34.4829],[-82.9749,34.4793],[-82.9642,34.4846],[-82.9557,34.4789],[-82.9482,34.4805],[-82.944,34.4855],[-82.9308,34.4856],[-82.9262,34.4817],[-82.9016,34.4868],[-82.8874,34.481],[-82.8812,34.4695],[-82.8588,34.4552],[-82.854,34.4288],[-82.8469,34.4194],[-82.8414,34.3901],[-82.836,34.3809],[-82.8348,34.3663],[-82.7947,34.3406],[-82.7818,34.2979],[-82.7467,34.2664],[-82.7477,34.2607],[-82.743,34.2514],[-82.7421,34.229],[-82.7444,34.2259],[-82.7405,34.22],[-82.7417,34.2097],[-82.7325,34.1945],[-82.7318,34.178],[-82.7175,34.1505],[-82.7041,34.141],[-82.6922,34.139],[-82.6752,34.1298],[-82.6588,34.104],[-82.6416,34.0921],[-82.6403,34.0865],[-82.6457,34.076],[-82.6438,34.0723],[-82.6354,34.0651],[-82.627,34.0635],[-82.6074,34.0381],[-82.5942,34.0289],[-82.5955,34.0159],[-82.5886,33.9998],[-82.5752,33.9914],[-82.5805,33.9821],[-82.5691,33.9699],[-82.5646,33.9558],[-82.5568,33.9454],[-82.5431,33.9409],[-82.5245,33.9434],[-82.5076,33.9315],[-82.4929,33.9098],[-82.4551,33.8817],[-82.4249,33.8641],[-82.4022,33.8647],[-82.3733,33.8447],[-82.3462,33.8338],[-82.3245,33.82],[-82.3124,33.8072],[-82.3002,33.8006],[-82.2975,33.783],[-82.2887,33.7816],[-82.2475,33.7526],[-82.2391,33.7309],[-82.2346,33.7002],[-82.2186,33.6863],[-82.2108,33.6706],[-82.1998,33.6618],[-82.2012,33.6469],[-82.1966,33.6306],[-82.1891,33.6237],[-82.1762,33.6138],[-82.1563,33.6086],[-82.1429,33.5943],[-82.1291,33.5899],[-82.1158,33.5966],[-82.1062,33.5956],[-82.0941,33.5827],[-82.0731,33.5775],[-82.0577,33.5668],[-82.0463,33.5638],[-82.033,33.5465],[-82.0115,33.5317],[-82.0076,33.5233],[-82.0013,33.5201],[-81.9919,33.5044],[-81.9909,33.4942],[-81.9859,33.4865],[-81.9341,33.4683],[-81.9263,33.4629],[-81.9131,33.4383],[-81.917,33.4326],[-81.9308,33.429],[-81.9317,33.4245],[-81.9096,33.4126],[-81.9124,33.4081],[-81.9177,33.4072],[-81.9248,33.4124],[-81.9314,33.407],[-81.9449,33.408],[-81.9445,33.4037],[-81.9351,33.3972],[-81.9309,33.3801],[-81.9248,33.3741],[-81.9306,33.3682],[-81.9396,33.3725],[-81.9463,33.3706],[-81.9447,33.364],[-81.9353,33.3568],[-81.9397,33.3449],[-81.9235,33.3449],[-81.9193,33.3403],[-81.913,33.3469],[-81.9089,33.3463],[-81.9189,33.335],[-81.9081,33.3271],[-81.9137,33.32],[-81.9061,33.3216],[-81.902,33.3359],[-81.8969,33.3305],[-81.8986,33.3229],[-81.8892,33.3211],[-81.8925,33.3153],[-81.8825,33.317],[-81.8846,33.3092],[-81.8812,33.3025],[-81.8692,33.3138],[-81.8649,33.3118],[-81.8639,33.302],[-81.8561,33.3099],[-81.8476,33.3071],[-81.8487,33.2967],[-81.86,33.2991],[-81.8633,33.2892],[-81.8607,33.2858],[-81.8462,33.2843],[-81.8391,33.2739],[-81.8325,33.2756],[-81.836,33.2635],[-81.8283,33.263],[-81.8344,33.2584],[-81.8469,33.2666],[-81.8463,33.2584],[-81.84,33.2546],[-81.8498,33.2529],[-81.8529,33.2487],[-81.8279,33.2287],[-81.8092,33.2221],[-81.8065,33.2121],[-81.7902,33.2084],[-81.7789,33.2098],[-81.7776,33.2153],[-81.781,33.2198],[-81.7777,33.2218],[-81.7679,33.2163],[-81.7635,33.2036],[-81.7569,33.1978],[-81.7606,33.1892],[-81.7677,33.1846],[-81.7661,33.1778],[-81.7724,33.1809],[-81.7631,33.1594],[-81.7541,33.1506],[-81.7046,33.1165],[-81.677,33.1106],[-81.6423,33.0932],[-81.6117,33.0943],[-81.6083,33.089],[-81.6129,33.081],[-81.6068,33.0817],[-81.6013,33.087],[-81.5965,33.0799],[-81.6032,33.0744],[-81.5936,33.0695],[-81.5925,33.0731],[-81.5844,33.0699],[-81.5831,33.065],[-81.5772,33.0659],[-81.581,33.0627],[-81.5749,33.0618],[-81.5783,33.0589],[-81.5728,33.0586],[-81.5719,33.054],[-81.563,33.0558],[-81.5669,33.0596],[-81.564,33.0608],[-81.5589,33.0529],[-81.5661,33.0488],[-81.5619,33.0458],[-81.5518,33.0434],[-81.5438,33.0486],[-81.5388,33.0392],[-81.5291,33.0408],[-81.5285,33.0356],[-81.5227,33.0308],[-81.5112,33.0278],[-81.5117,33.0245],[-81.5191,33.0232],[-81.5103,33.0212],[-81.5082,33.0175],[-81.5107,33.0103],[-81.5041,33.0163],[-81.4923,33.0093],[-81.4919,33.0067],[-81.5006,33.002],[-81.4912,32.9978],[-81.4961,32.9909],[-81.4947,32.979],[-81.4998,32.9638],[-81.505,32.9636],[-81.5088,32.9694],[-81.5113,32.9667],[-81.5086,32.9526],[-81.4994,32.945],[-81.5024,32.9354],[-81.4832,32.9218],[-81.487,32.9148],[-81.48,32.9134],[-81.4808,32.8986],[-81.4721,32.8938],[-81.4716,32.9],[-81.4641,32.8978],[-81.4683,32.8923],[-81.4659,32.8895],[-81.4771,32.8875],[-81.4794,32.8811],[-81.4704,32.8763],[-81.4651,32.8809],[-81.4606,32.8752],[-81.4534,32.8739],[-81.4514,32.8672],[-81.4569,32.8526],[-81.4556,32.8465],[-81.4607,32.846],[-81.4517,32.8448],[-81.4449,32.851],[-81.4399,32.8404],[-81.4348,32.8435],[-81.4265,32.8408],[-81.4206,32.8312],[-81.4299,32.8282],[-81.422,32.8215],[-81.4282,32.8186],[-81.4244,32.8162],[-81.418,32.8182],[-81.4263,32.8099],[-81.4227,32.802],[-81.4283,32.8008],[-81.4252,32.7942],[-81.4199,32.7949],[-81.4274,32.7883],[-81.4222,32.784],[-81.4312,32.7841],[-81.4269,32.7795],[-81.4145,32.7781],[-81.4174,32.7733],[-81.4299,32.7721],[-81.4319,32.7689],[-81.4171,32.7661],[-81.4178,32.7602],[-81.414,32.7645],[-81.4118,32.7631],[-81.414,32.7554],[-81.4084,32.7547],[-81.4198,32.7498],[-81.4059,32.7491],[-81.4049,32.7456],[-81.4076,32.7403],[-81.4139,32.7375],[-81.4125,32.7324],[-81.4185,32.7326],[-81.4178,32.7251],[-81.41,32.7219],[-81.4203,32.7211],[-81.4151,32.7137],[-81.4259,32.71],[-81.4241,32.7076],[-81.4275,32.7022],[-81.4136,32.6955],[-81.4124,32.6921],[-81.4096,32.697],[-81.4058,32.6905],[-81.4066,32.6849],[-81.401,32.6775],[-81.4039,32.6669],[-81.3975,32.6626],[-81.4003,32.6585],[-81.4045,32.6626],[-81.4072,32.6605],[-81.4053,32.6565],[-81.3983,32.6563],[-81.393,32.6515],[-81.4051,32.6427],[-81.4126,32.6415],[-81.4027,32.637],[-81.4082,32.6313],[-81.4148,32.6374],[-81.4184,32.6347],[-81.4181,32.6283],[-81.3893,32.5954],[-81.3782,32.5888],[-81.3698,32.5912],[-81.3698,32.585],[-81.3636,32.5818],[-81.367,32.577],[-81.3577,32.5821],[-81.3541,32.5799],[-81.3583,32.5736],[-81.3548,32.5711],[-81.3286,32.5611],[-81.298,32.563],[-81.2956,32.5618],[-81.2967,32.5534],[-81.2918,32.5553],[-81.2913,32.5627],[-81.2889,32.5512],[-81.2813,32.5565],[-81.2788,32.5523],[-81.2807,32.5476],[-81.275,32.5448],[-81.2762,32.5386],[-81.2799,32.5366],[-81.2529,32.5183],[-81.2448,32.5205],[-81.2402,32.5164],[-81.2334,32.518],[-81.2321,32.5133],[-81.2384,32.5102],[-81.2387,32.507],[-81.2336,32.4985],[-81.2,32.468],[-81.187,32.4636],[-81.1937,32.4597],[-81.1922,32.4536],[-81.198,32.4539],[-81.1975,32.4491],[-81.2045,32.4528],[-81.2067,32.4481],[-81.1994,32.4442],[-81.2084,32.437],[-81.2055,32.4236],[-81.1787,32.3936],[-81.1773,32.3898],[-81.1818,32.3793],[-81.1679,32.3683],[-81.1738,32.3627],[-81.161,32.3559],[-81.1601,32.349],[-81.1548,32.3496],[-81.1551,32.3442],[-81.1598,32.343],[-81.1598,32.34],[-81.146,32.345],[-81.1473,32.3501],[-81.1438,32.3515],[-81.1394,32.3451],[-81.1294,32.3416],[-81.1286,32.3386],[-81.1379,32.3287],[-81.1363,32.325],[-81.1306,32.3254],[-81.1298,32.314],[-81.1331,32.309],[-81.1229,32.3073],[-81.1239,32.2964],[-81.1199,32.2862],[-81.127,32.2827],[-81.1234,32.2751],[-81.13,32.2758],[-81.1335,32.2698],[-81.1356,32.2725],[-81.1419,32.2717],[-81.1369,32.2661],[-81.1466,32.2628],[-81.1447,32.2588],[-81.1483,32.2551],[-81.1457,32.2515],[-81.1566,32.2439],[-81.1436,32.2293],[-81.1522,32.2223],[-81.1384,32.2193],[-81.1367,32.2137],[-81.1231,32.2013],[-81.1221,32.1955],[-81.114,32.1954],[-81.1216,32.1922],[-81.1182,32.1892],[-81.1205,32.1783],[-81.1119,32.178],[-81.1111,32.1727],[-81.1177,32.1712],[-81.1212,32.1749],[-81.1297,32.1659],[-81.122,32.1618],[-81.1211,32.1545],[-81.1122,32.1508],[-81.1191,32.1421],[-81.1199,32.134],[-81.1152,32.1255],[-81.1172,32.1176],[-81.1067,32.1097],[-81.0912,32.1109],[-81.087,32.104],[-81.0883,32.0999],[-81.0381,32.0837],[-81.0263,32.0881],[-81.0174,32.0988],[-81.0043,32.1024],[-80.9921,32.0949],[-80.9835,32.0795],[-80.9539,32.0701],[-80.9251,32.0419],[-80.9077,32.0382]],[[-81.968,37.538],[-81.965,37.543],[-81.9701,37.5465],[-81.9825,37.5418],[-81.9891,37.5425],[-81.994,37.5376],[-81.9982,37.5431],[-82.0074,37.5337],[-82.014,37.5336],[-82.0189,37.5406],[-82.0288,37.5377],[-82.0428,37.5484],[-82.0452,37.5445],[-82.0424,37.5339],[-82.0467,37.5282],[-82.0496,37.5352],[-82.0644,37.5369],[-82.0644,37.5445],[-82.075,37.5558],[-82.1031,37.5528],[-82.1054,37.5543],[-82.1019,37.5581],[-82.1048,37.5602],[-82.1173,37.5592],[-82.1238,37.5514],[-82.1332,37.5528],[-82.1344,37.5629],[-82.1446,37.5683],[-82.1273,37.5727],[-82.1243,37.5778],[-82.1273,37.5867],[-82.1323,37.5933],[-82.1416,37.5952],[-82.1481,37.5908],[-82.1567,37.5928],[-82.1567,37.6092],[-82.1685,37.6087],[-82.1695,37.6132],[-82.1642,37.6202],[-82.1695,37.622],[-82.1767,37.6182],[-82.1814,37.6218],[-82.1817,37.6271],[-82.1724,37.6326],[-82.1775,37.6404],[-82.1753,37.648],[-82.1855,37.6489],[-82.1908,37.6451],[-82.1873,37.6269],[-82.2134,37.6252],[-82.2202,37.6339],[-82.2168,37.6416],[-82.2236,37.6443],[-82.2261,37.6531],[-82.2404,37.6616],[-82.2571,37.6567],[-82.272,37.6638],[-82.2823,37.6758],[-82.2882,37.6682],[-82.2944,37.6704],[-82.2947,37.6783],[-82.304,37.6758],[-82.2961,37.6862],[-82.3029,37.6937],[-82.2966,37.7024],[-82.3072,37.7077],[-82.3117,37.7188],[-82.3162,37.7215],[-82.3189,37.7338],[-82.3268,37.7363],[-82.334,37.7432],[-82.3214,37.7513],[-82.32,37.7586],[-82.3113,37.7613],[-82.3124,37.7648],[-82.3274,37.7622],[-82.334,37.7651],[-82.3235,37.7722],[-82.3237,37.775],[-82.3376,37.7754],[-82.3397,37.7855],[-82.3485,37.7868],[-82.3543,37.7931],[-82.3639,37.795],[-82.3678,37.8006],[-82.3762,37.802],[-82.3866,37.8182],[-82.397,37.809],[-82.4017,37.8101],[-82.3984,37.8216],[-82.3997,37.8299],[-82.4089,37.8366],[-82.4121,37.8439],[-82.4206,37.8467],[-82.4149,37.8562],[-82.4247,37.8619],[-82.4075,37.8673],[-82.4182,37.8712],[-82.4199,37.8849],[-82.4321,37.8899],[-82.4381,37.9002],[-82.4523,37.9087],[-82.46,37.9095],[-82.4629,37.9148],[-82.4677,37.9142],[-82.4682,37.9036],[-82.4711,37.8994],[-82.4744,37.9],[-82.4755,37.9119],[-82.4883,37.9177],[-82.4803,37.9258],[-82.4973,37.9276],[-82.5022,37.9331],[-82.5004,37.9365],[-82.4895,37.9379],[-82.4967,37.9416],[-82.4977,37.9457],[-82.4851,37.946],[-82.4716,37.9591],[-82.484,37.9633],[-82.4843,37.9714],[-82.4694,37.9731],[-82.465,37.9769],[-82.4643,37.9834],[-82.4731,37.9866],[-82.484,37.9841],[-82.4892,37.999],[-82.5192,38.0011],[-82.5156,38.0067],[-82.5226,38.013],[-82.5258,38.0264],[-82.5386,38.0374],[-82.5373,38.0452],[-82.5439,38.0521],[-82.5513,38.0708],[-82.5596,38.0728],[-82.5657,38.0806],[-82.5741,38.0821],[-82.584,38.0907],[-82.5878,38.1089],[-82.6066,38.1208],[-82.6204,38.1215],[-82.6221,38.1334],[-82.6373,38.139],[-82.6389,38.1567],[-82.6447,38.1655],[-82.6391,38.1711],[-82.6194,38.169],[-82.6113,38.1715],[-82.5993,38.1972],[-82.5984,38.2174],[-82.6089,38.2237],[-82.6123,38.2361],[-82.6053,38.2473],[-82.584,38.2464],[-82.5747,38.2639],[-82.5746,38.2747],[-82.5831,38.2968],[-82.5718,38.3172],[-82.5765,38.3281],[-82.598,38.3449],[-82.5975,38.3648],[-82.5928,38.3776],[-82.5997,38.3904],[-82.5947,38.3978],[-82.5963,38.4177],[-82.5935,38.4218],[-82.5876,38.4127],[-82.5716,38.4051],[-82.5402,38.4037],[-82.4049,38.4393],[-82.3818,38.4348],[-82.3303,38.4445],[-82.3181,38.4579],[-82.3042,38.4963],[-82.304,38.5177],[-82.2957,38.5385],[-82.2913,38.579],[-82.2743,38.5937],[-82.2621,38.5982],[-82.246,38.5985],[-82.2222,38.5914],[-82.2052,38.5917],[-82.1888,38.595],[-82.1773,38.6038],[-82.1721,38.6193],[-82.1727,38.6297],[-82.1856,38.6596],[-82.1909,38.6804],[-82.1825,38.7088],[-82.1956,38.7524],[-82.2015,38.7604],[-82.2166,38.7683],[-82.2204,38.7737],[-82.2216,38.7872],[-82.2093,38.8027],[-82.1912,38.8151],[-82.1616,38.8246],[-82.1449,38.8405],[-82.1392,38.865],[-82.1453,38.8835],[-82.1432,38.8981],[-82.1289,38.91],[-82.1117,38.9326],[-82.1091,38.9456],[-82.0949,38.9646],[-82.0916,38.9738],[-82.0516,38.9944],[-82.0377,39.0239],[-82.0226,39.0294],[-82.006,39.0294],[-81.9914,39.0184],[-81.9794,38.9932],[-81.9514,38.996],[-81.9332,38.9877],[-81.9006,38.9377],[-81.8985,38.9296],[-81.9267,38.9013],[-81.928,38.8935],[-81.9103,38.8793],[-81.8985,38.8746],[-81.8892,38.8743],[-81.856,38.8927],[-81.8453,38.9101],[-81.8445,38.9287],[-81.8274,38.9459],[-81.8142,38.9462],[-81.7856,38.9262],[-81.7741,38.923],[-81.7627,38.9241],[-81.7585,38.9279],[-81.757,38.9372],[-81.7788,38.9559],[-81.7818,38.9649],[-81.7741,38.9937],[-81.7652,39.0026],[-81.7643,39.0153],[-81.7729,39.0262],[-81.8034,39.0477],[-81.8117,39.0596],[-81.8139,39.0793],[-81.8107,39.0833],[-81.8031,39.0839],[-81.7756,39.0784],[-81.7608,39.0841],[-81.7473,39.0954],[-81.743,39.1066],[-81.7436,39.1419],[-81.7558,39.181],[-81.7371,39.1938],[-81.727,39.2151],[-81.7009,39.2208],[-81.6924,39.2264],[-81.6964,39.257],[-81.6836,39.2709],[-81.6702,39.276],[-81.6432,39.2772],[-81.6213,39.2736],[-81.6034,39.2755],[-81.5856,39.2687],[-81.5702,39.2677],[-81.5652,39.2762],[-81.5575,39.3388],[-81.5423,39.3529],[-81.5032,39.3732],[-81.4732,39.4002],[-81.4561,39.4093],[-81.4356,39.4085],[-81.4127,39.3946],[-81.4067,39.3881],[-81.3938,39.3517],[-81.3846,39.3434],[-81.376,39.3417],[-81.3476,39.3458],[-81.2975,39.3744],[-81.2707,39.3859],[-81.2418,39.3903],[-81.2236,39.3861],[-81.2173,39.3876],[-81.2117,39.393],[-81.2082,39.4071],[-81.1859,39.4307],[-81.1706,39.4392],[-81.1325,39.4463],[-81.1144,39.4663],[-81.1008,39.4872],[-81.0706,39.516],[-80.9704,39.5901],[-80.9258,39.6174],[-80.8922,39.6168],[-80.8804,39.6207],[-80.8666,39.6526],[-80.8637,39.6917],[-80.852,39.6986],[-80.8339,39.7035],[-80.8298,39.7118],[-80.8316,39.7195],[-80.8461,39.7378],[-80.8653,39.7533],[-80.8691,39.7664],[-80.863,39.7752],[-80.8261,39.7986],[-80.8222,39.8117],[-80.8261,39.8442],[-80.8213,39.85],[-80.7999,39.8589],[-80.7908,39.8673],[-80.794,39.8828],[-80.809,39.9032],[-80.806,39.9171],[-80.7957,39.9197],[-80.7626,39.9089],[-80.7564,39.9139],[-80.7645,39.9502],[-80.7585,39.9592],[-80.7401,39.9708],[-80.7387,39.9851],[-80.7419,40.0079],[-80.7309,40.0467],[-80.7386,40.0757],[-80.7307,40.0865],[-80.7091,40.1015],[-80.7067,40.1109],[-80.7106,40.1253],[-80.71,40.1383],[-80.7046,40.1548],[-80.6861,40.1816],[-80.6681,40.1997],[-80.6615,40.2298],[-80.6521,40.245],[-80.6193,40.2652],[-80.6149,40.292],[-80.6029,40.3071],[-80.5999,40.3177],[-80.6128,40.3477],[-80.6076,40.3696],[-80.6097,40.375],[-80.6192,40.3818],[-80.6307,40.3849],[-80.6336,40.3905],[-80.6322,40.3937],[-80.6122,40.4027],[-80.6123,40.4349],[-80.5961,40.4634],[-80.5955,40.4753],[-80.618,40.502],[-80.6275,40.5358],[-80.6331,40.5387],[-80.6524,40.5625],[-80.6669,40.5737],[-80.668,40.5825],[-80.6626,40.5916],[-80.6272,40.6199],[-80.5988,40.6253],[-80.5767,40.6142],[-80.5511,40.6288],[-80.519,40.6388]],[[-81.968,37.538],[-81.9676,37.5328],[-81.9574,37.5352],[-81.9566,37.5285],[-81.944,37.531],[-81.9477,37.5251],[-81.9437,37.5212],[-81.9439,37.5129],[-81.9387,37.5129],[-81.9341,37.5195],[-81.9267,37.513],[-81.9412,37.5095],[-81.9439,37.5029],[-81.9531,37.5013],[-81.9533,37.4918],[-81.965,37.4935],[-81.9776,37.4846],[-81.9898,37.4849],[-81.9966,37.4767],[-81.9961,37.4715],[-81.987,37.4549],[-81.9762,37.4572],[-81.9688,37.4515],[-81.9704,37.4477],[-81.9574,37.4491],[-81.9494,37.4457],[-81.9458,37.4402],[-81.9356,37.4384],[-81.9406,37.4291],[-81.9369,37.4199],[-81.9235,37.4114],[-81.9245,37.4076],[-81.93,37.4053],[-81.9288,37.3938],[-81.9339,37.3907],[-81.9318,37.3855],[-81.9367,37.3807],[-81.9311,37.3755],[-81.9334,37.3693],[-81.9267,37.3646],[-81.9285,37.3606],[-81.9256,37.3573],[-81.9216,37.3564],[-81.9167,37.3493],[-81.9109,37.3487],[-81.9073,37.3431],[-81.8995,37.3411],[-81.8938,37.3301],[-81.8787,37.3318],[-81.8702,37.3207],[-81.8603,37.3157],[-81.8657,37.3095],[-81.8596,37.3048],[-81.8545,37.3066],[-81.8536,37.2877],[-81.8499,37.2852],[-81.8388,37.2863],[-81.8334,37.2845],[-81.8345,37.2818],[-81.8196,37.2794],[-81.8054,37.2856],[-81.7936,37.2848],[-81.7934,37.2817],[-81.7893,37.2844],[-81.7747,37.2748],[-81.7576,37.274],[-81.7575,37.27],[-81.7461,37.2636],[-81.7454,37.2581],[-81.741,37.2541],[-81.744,37.2425],[-81.7385,37.2383],[-81.7231,37.2405],[-81.7162,37.2343],[-81.7157,37.2288],[-81.6951,37.2136],[-81.6835,37.2115],[-81.6833,37.2056],[-81.6782,37.2015],[-81.5536,37.2084],[-81.5444,37.2208],[-81.5207,37.2269],[-81.5073,37.2338],[-81.5064,37.2445],[-81.4989,37.258],[-81.4923,37.251],[-81.4801,37.2511],[-81.4621,37.2599],[-81.4606,37.2655],[-81.4477,37.2722],[-81.4167,37.2732],[-81.4167,37.2772],[-81.4116,37.2803],[-81.4038,37.2966],[-81.4051,37.2988],[-81.3968,37.3045],[-81.3985,37.3106],[-81.3943,37.3164],[-81.3867,37.3205],[-81.3745,37.3186],[-81.3676,37.3276],[-81.3694,37.3318],[-81.3622,37.3377],[-81.3201,37.2993],[-81.2251,37.2349],[-81.167,37.2629],[-81.1126,37.2785],[-80.9796,37.3023],[-80.9813,37.2935],[-80.9666,37.2922],[-80.9479,37.2959],[-80.9005,37.315],[-80.869,37.3386],[-80.8495,37.3469],[-80.8832,37.3839],[-80.8628,37.4118],[-80.8651,37.4199],[-80.8596,37.4296],[-80.8463,37.4234],[-80.8377,37.4257],[-80.8088,37.4063],[-80.8061,37.3981],[-80.7842,37.3946],[-80.7701,37.3724],[-80.7052,37.3946],[-80.6459,37.4221],[-80.6344,37.4312],[-80.6227,37.4333],[-80.6168,37.4394],[-80.6002,37.4462],[-80.5614,37.4698],[-80.5151,37.4786],[-80.5114,37.4817],[-80.493,37.4577],[-80.4973,37.4448],[-80.4949,37.4351],[-80.4756,37.4229],[-80.4648,37.4261],[-80.4257,37.4499],[-80.372,37.4741],[-80.3632,37.48],[-80.3668,37.4849],[-80.3271,37.4954],[-80.2998,37.5083],[-80.2824,37.5335],[-80.2916,37.5365],[-80.3093,37.5274],[-80.3303,37.5362],[-80.3124,37.5462],[-80.3285,37.5643],[-80.2589,37.5955],[-80.2403,37.607],[-80.221,37.6278],[-80.2393,37.6377],[-80.2675,37.6461],[-80.2794,37.6571],[-80.2961,37.6918],[-80.2531,37.7259],[-80.252,37.7298],[-80.2603,37.7335],[-80.2628,37.7383],[-80.2574,37.7561],[-80.2498,37.7571],[-80.2513,37.763],[-80.248,37.7685],[-80.2414,37.7681],[-80.2403,37.7727],[-80.2305,37.7783],[-80.2157,37.7775],[-80.2159,37.782],[-80.2235,37.7824],[-80.2234,37.7872],[-80.2295,37.7923],[-80.2271,37.7989],[-80.2186,37.8098],[-80.2065,37.816],[-80.1996,37.8275],[-80.1794,37.8398],[-80.1831,37.8506],[-80.1767,37.854],[-80.1622,37.8751],[-80.149,37.8869],[-80.1419,37.8826],[-80.1236,37.8979],[-80.1177,37.8977],[-80.119,37.9036],[-80.1029,37.9189],[-80.0966,37.9181],[-80.0745,37.9422],[-80.0484,37.9575],[-80.0131,37.9843],[-80.0122,37.9886],[-79.9994,37.9958],[-79.995,38.0079],[-79.9861,38.0142],[-79.9803,38.0276],[-79.9737,38.0326],[-79.9739,38.04],[-79.9598,38.0637],[-79.9544,38.0804],[-79.9263,38.1072],[-79.939,38.1116],[-79.9448,38.1316],[-79.9338,38.1355],[-79.929,38.1398],[-79.9255,38.1502],[-79.9187,38.1548],[-79.9195,38.1626],[-79.9164,38.163],[-79.9149,38.1675],[-79.9189,38.1704],[-79.9166,38.178],[-79.9212,38.1804],[-79.9163,38.1863],[-79.8984,38.193],[-79.8916,38.2047],[-79.8503,38.2333],[-79.8452,38.2411],[-79.8351,38.2419],[-79.8309,38.2497],[-79.8196,38.2482],[-79.8149,38.2516],[-79.812,38.2604],[-79.8063,38.2592],[-79.7983,38.266],[-79.7889,38.2687],[-79.7898,38.2812],[-79.7954,38.2902],[-79.8028,38.2921],[-79.8102,38.3067],[-79.7965,38.3235],[-79.7731,38.3355],[-79.7677,38.3441],[-79.7703,38.3478],[-79.7644,38.3565],[-79.7406,38.3541],[-79.7256,38.3638],[-79.7268,38.3708],[-79.7317,38.3734],[-79.7263,38.3871],[-79.7066,38.4157],[-79.6897,38.4314],[-79.6915,38.4463],[-79.6884,38.4569],[-79.6911,38.4637],[-79.6989,38.4699],[-79.6996,38.474],[-79.6934,38.481],[-79.6976,38.4872],[-79.6923,38.4965],[-79.6883,38.4962],[-79.683,38.5013],[-79.6804,38.5106],[-79.6705,38.5077],[-79.6621,38.5155],[-79.673,38.5287],[-79.6669,38.5383],[-79.6693,38.5495],[-79.6651,38.5609],[-79.6593,38.5624],[-79.6629,38.5704],[-79.6582,38.573],[-79.6491,38.5915],[-79.5718,38.5631],[-79.5555,38.5602],[-79.5369,38.5509],[-79.5215,38.5339],[-79.4766,38.4572],[-79.3123,38.4119],[-79.2905,38.4208],[-79.283,38.4181],[-79.2797,38.4242],[-79.2828,38.4316],[-79.2674,38.4383],[-79.2544,38.4559],[-79.2426,38.4542],[-79.2401,38.4698],[-79.2257,38.4765],[-79.2191,38.4874],[-79.2106,38.4929],[-79.207,38.5035],[-79.211,38.5074],[-79.2059,38.5245],[-79.1841,38.5515],[-79.1767,38.5655],[-79.171,38.5681],[-79.1709,38.5741],[-79.1587,38.5923],[-79.1592,38.6012],[-79.1544,38.6065],[-79.1513,38.6206],[-79.1376,38.638],[-79.1298,38.655],[-79.1203,38.6602],[-79.1064,38.6562],[-79.093,38.6595],[-79.0844,38.6865],[-79.0908,38.6925],[-79.0928,38.7023],[-79.0855,38.7246],[-79.0726,38.7475],[-79.0576,38.7602],[-79.0557,38.7709],[-79.0516,38.7726],[-79.055,38.7857],[-79.0466,38.7921],[-79.0273,38.7921],[-79.0231,38.7986],[-79.0241,38.8092],[-79.0196,38.8179],[-79.0066,38.8237],[-78.9982,38.8474],[-78.994,38.8501],[-78.8693,38.763],[-78.8273,38.8216],[-78.8082,38.8562],[-78.786,38.8872],[-78.7591,38.9005],[-78.7505,38.916],[-78.7389,38.9273],[-78.7225,38.9314],[-78.7171,38.936],[-78.7209,38.9098],[-78.7186,38.9046],[-78.7043,38.9152],[-78.6974,38.9156],[-78.6883,38.9248],[-78.6805,38.9253],[-78.659,38.9474],[-78.6466,38.9681],[-78.6384,38.9668],[-78.6308,38.9796],[-78.6257,38.9826],[-78.6205,38.9826],[-78.6187,38.9741],[-78.6112,38.9761],[-78.6017,38.9646],[-78.5705,39.0016],[-78.5505,39.0181],[-78.5719,39.032],[-78.5402,39.0606],[-78.5227,39.0711],[-78.5165,39.0818],[-78.4952,39.101],[-78.4784,39.1098],[-78.4754,39.1075],[-78.4599,39.1134],[-78.4394,39.1321],[-78.4367,39.1417],[-78.4273,39.1527],[-78.4139,39.1584],[-78.4037,39.1675],[-78.4148,39.1778],[-78.4189,39.1774],[-78.4263,39.1828],[-78.4287,39.1872],[-78.4249,39.1933],[-78.4387,39.198],[-78.4056,39.2312],[-78.4042,39.2412],[-78.3997,39.2439],[-78.4194,39.2575],[-78.4028,39.2755],[-78.4029,39.2786],[-78.3934,39.283],[-78.3859,39.2949],[-78.3672,39.3101],[-78.3647,39.3173],[-78.36,39.3178],[-78.3463,39.3391],[-78.3474,39.3434],[-78.3393,39.3486],[-78.3405,39.3535],[-78.3669,39.3593],[-78.3432,39.3888],[-78.3509,39.391],[-78.3494,39.3973],[-78.3599,39.409],[-78.3467,39.4276],[-78.3532,39.4368],[-78.3465,39.4426],[-78.3451,39.4595],[-78.3495,39.4622],[-78.3471,39.466],[-78.2628,39.4143],[-78.1582,39.3434],[-77.8282,39.1323],[-77.8222,39.14],[-77.8214,39.1524],[-77.8051,39.1742],[-77.7936,39.2101],[-77.7714,39.2368],[-77.7673,39.2494],[-77.7709,39.2498],[-77.7703,39.256],[-77.7628,39.2584],[-77.7503,39.2893],[-77.7349,39.3124],[-77.7195,39.3213]],[[-81.6775,36.5881],[-81.6009,36.587],[-81.4422,36.5768],[-81.1767,36.5719],[-81.0038,36.5636],[-80.8376,36.5591],[-80.7048,36.5623],[-80.2952,36.544],[-80.1222,36.5426],[-78.5297,36.541],[-78.2455,36.5444],[-77.2052,36.5446],[-77.1697,36.5473],[-77.1527,36.5441],[-76.916,36.5438],[-76.9159,36.5521],[-75.8676,36.5504]],[[-80.519,40.6388],[-80.5194,41.9772]],[[-79.4767,39.7211],[-80.5193,39.7214],[-80.519,40.6388]],[[-74.6949,41.3574],[-74.6898,41.3616],[-74.6911,41.3673],[-74.7085,41.3789],[-74.716,41.3926],[-74.7336,41.397],[-74.741,41.4051],[-74.7411,41.4114],[-74.7347,41.4227],[-74.7385,41.4306],[-74.7586,41.4233],[-74.7732,41.4264],[-74.7904,41.4217],[-74.7954,41.424],[-74.8012,41.4381],[-74.8076,41.4428],[-74.818,41.4405],[-74.8307,41.4305],[-74.8586,41.4444],[-74.8939,41.4389],[-74.8964,41.4422],[-74.8891,41.4512],[-74.8904,41.4553],[-74.9069,41.4611],[-74.9125,41.4756],[-74.9418,41.4835],[-74.9583,41.4764],[-74.9833,41.4809],[-74.9856,41.4859],[-74.9822,41.4985],[-74.9844,41.5066],[-75.0032,41.5081],[-75.0009,41.5193],[-75.0038,41.5241],[-75.0248,41.5351],[-75.0248,41.5398],[-75.0161,41.5442],[-75.0185,41.5518],[-75.0273,41.5635],[-75.0405,41.5697],[-75.0468,41.5833],[-75.06,41.5908],[-75.0746,41.6057],[-75.0717,41.6095],[-75.0597,41.6108],[-75.0601,41.6175],[-75.0473,41.6158],[-75.0442,41.618],[-75.0436,41.6236],[-75.0487,41.6338],[-75.0499,41.6626],[-75.0593,41.6723],[-75.0513,41.68],[-75.0527,41.6884],[-75.0688,41.7082],[-75.0666,41.7126],[-75.0499,41.7133],[-75.0548,41.7352],[-75.0534,41.7525],[-75.0608,41.7646],[-75.0759,41.7715],[-75.0955,41.7684],[-75.101,41.7691],[-75.1046,41.7742],[-75.1015,41.7879],[-75.0929,41.7964],[-75.0769,41.7985],[-75.0722,41.8137],[-75.0781,41.8151],[-75.0895,41.8116],[-75.1133,41.8228],[-75.1156,41.8446],[-75.131,41.8451],[-75.1402,41.8521],[-75.1529,41.8486],[-75.1615,41.8498],[-75.1687,41.8593],[-75.1706,41.8716],[-75.1766,41.8724],[-75.1853,41.8599],[-75.1944,41.8673],[-75.204,41.8699],[-75.215,41.8674],[-75.2237,41.8575],[-75.2316,41.8595],[-75.2411,41.8671],[-75.2512,41.862],[-75.2605,41.8638],[-75.2638,41.8708],[-75.2576,41.8771],[-75.2606,41.8838],[-75.2713,41.8874],[-75.2728,41.8971],[-75.2678,41.902],[-75.2676,41.9071],[-75.2766,41.9222],[-75.2791,41.9389],[-75.2894,41.9429],[-75.2937,41.9546],[-75.3004,41.9539],[-75.3017,41.9484],[-75.3128,41.9502],[-75.3293,41.9682],[-75.3422,41.9729],[-75.3376,41.9867],[-75.3411,41.9928],[-75.3596,41.9994],[-76.3437,41.9983],[-76.9208,42.0018],[-77.832,41.9985],[-79.7614,41.9991],[-79.762,42.2699]],[[-79.4767,39.7211],[-78.7235,39.723],[-76.9909,39.7198],[-75.7886,39.7222]],[[-77.7195,39.3213],[-77.7274,39.3217],[-77.7558,39.3339],[-77.7611,39.3398],[-77.7593,39.3453],[-77.7459,39.3532],[-77.7439,39.3599],[-77.7534,39.3821],[-77.7381,39.3862],[-77.7359,39.3897],[-77.7531,39.4233],[-77.7633,39.4284],[-77.7928,39.4306],[-77.8032,39.4371],[-77.8009,39.4408],[-77.7856,39.4454],[-77.7981,39.456],[-77.7985,39.4607],[-77.7778,39.4619],[-77.7956,39.4713],[-77.7982,39.4757],[-77.7967,39.4805],[-77.7691,39.4903],[-77.766,39.4957],[-77.7709,39.4991],[-77.7816,39.4991],[-77.7918,39.4908],[-77.8018,39.4894],[-77.8457,39.4986],[-77.8481,39.5021],[-77.8451,39.5058],[-77.8256,39.5169],[-77.8254,39.5292],[-77.8369,39.5322],[-77.8405,39.5292],[-77.8419,39.5185],[-77.8637,39.515],[-77.8665,39.52],[-77.8654,39.5384],[-77.8889,39.556],[-77.888,39.5592],[-77.8785,39.5635],[-77.8363,39.5664],[-77.8298,39.5873],[-77.8336,39.6029],[-77.838,39.6061],[-77.8578,39.6079],[-77.8851,39.6158],[-77.887,39.6133],[-77.881,39.6029],[-77.883,39.5988],[-77.8885,39.5973],[-77.9233,39.6049],[-77.9329,39.6177],[-77.9419,39.6188],[-77.9441,39.6146],[-77.9355,39.6081],[-77.9364,39.5945],[-77.939,39.5871],[-77.9462,39.5848],[-77.952,39.5927],[-77.9506,39.6039],[-77.9576,39.6086],[-77.9662,39.6074],[-77.9767,39.5997],[-78.01,39.6029],[-78.036,39.6357],[-78.0823,39.6712],[-78.0898,39.6717],[-78.1078,39.6821],[-78.1766,39.696],[-78.1911,39.6903],[-78.2029,39.6767],[-78.2316,39.6744],[-78.233,39.6705],[-78.2236,39.6611],[-78.2541,39.6401],[-78.2622,39.6305],[-78.2651,39.6193],[-78.283,39.6205],[-78.313,39.631],[-78.3552,39.6406],[-78.3595,39.6381],[-78.3537,39.6308],[-78.3558,39.6263],[-78.3732,39.6305],[-78.3825,39.6282],[-78.383,39.6222],[-78.3724,39.6123],[-78.3747,39.6086],[-78.3836,39.6089],[-78.3958,39.6161],[-78.4205,39.624],[-78.4303,39.6233],[-78.4336,39.6183],[-78.4256,39.6076],[-78.3975,39.5902],[-78.3953,39.5842],[-78.408,39.5786],[-78.4432,39.5912],[-78.4572,39.5874],[-78.4583,39.5804],[-78.4544,39.5743],[-78.4265,39.5592],[-78.4176,39.5472],[-78.424,39.5451],[-78.4319,39.5525],[-78.4374,39.5535],[-78.4385,39.5496],[-78.4348,39.544],[-78.4384,39.5388],[-78.4511,39.5502],[-78.4602,39.5512],[-78.4601,39.5458],[-78.4506,39.544],[-78.4486,39.54],[-78.4628,39.5358],[-78.4629,39.5208],[-78.4712,39.5161],[-78.484,39.5195],[-78.5032,39.5187],[-78.5214,39.5248],[-78.5659,39.5194],[-78.5782,39.5266],[-78.5878,39.5279],[-78.5921,39.5318],[-78.5916,39.5369],[-78.6023,39.5321],[-78.623,39.5395],[-78.656,39.5347],[-78.6895,39.5458],[-78.6946,39.5533],[-78.7071,39.5559],[-78.7148,39.5626],[-78.725,39.564],[-78.732,39.5754],[-78.734,39.5866],[-78.7402,39.5857],[-78.7464,39.5795],[-78.7567,39.5807],[-78.7675,39.5875],[-78.7705,39.595],[-78.7781,39.6014],[-78.7769,39.604],[-78.7605,39.61],[-78.7515,39.6099],[-78.7471,39.6057],[-78.7336,39.6155],[-78.7362,39.6217],[-78.7485,39.6263],[-78.7632,39.6189],[-78.7775,39.6217],[-78.7726,39.6369],[-78.765,39.6461],[-78.7658,39.6485],[-78.7752,39.6457],[-78.7813,39.6368],[-78.7953,39.6368],[-78.7974,39.6295],[-78.8017,39.6275],[-78.7959,39.6069],[-78.7978,39.6049],[-78.8093,39.6081],[-78.8122,39.5977],[-78.8189,39.5904],[-78.826,39.5888],[-78.8264,39.5773],[-78.8201,39.5763],[-78.8135,39.5677],[-78.8168,39.5617],[-78.8214,39.5606],[-78.8386,39.5673],[-78.8512,39.5599],[-78.8519,39.5518],[-78.8614,39.541],[-78.8707,39.5388],[-78.8694,39.5318],[-78.8747,39.5226],[-78.8933,39.5238],[-78.8929,39.5128],[-78.9055,39.5115],[-78.9039,39.5047],[-78.9165,39.4865],[-78.9388,39.4837],[-78.9426,39.4796],[-78.9389,39.4741],[-78.9409,39.4705],[-78.9592,39.4619],[-78.9543,39.4547],[-78.96,39.4516],[-78.956,39.4479],[-78.9568,39.4403],[-78.9655,39.4385],[-78.9788,39.4487],[-79.0101,39.461],[-79.0171,39.467],[-79.0303,39.4654],[-79.0369,39.4768],[-79.047,39.4834],[-79.0524,39.4823],[-79.0554,39.4715],[-79.0581,39.4708],[-79.0662,39.4799],[-79.0686,39.4745],[-79.0833,39.4714],[-79.1032,39.476],[-79.1036,39.47],[-79.0945,39.4652],[-79.0954,39.4625],[-79.1072,39.462],[-79.1079,39.4571],[-79.1019,39.4573],[-79.1025,39.4512],[-79.1164,39.4405],[-79.1106,39.4327],[-79.124,39.4332],[-79.129,39.4295],[-79.1284,39.4175],[-79.1423,39.4167],[-79.1438,39.4052],[-79.1498,39.4057],[-79.1512,39.417],[-79.1601,39.4164],[-79.159,39.4108],[-79.1665,39.4009],[-79.1621,39.3883],[-79.1652,39.3871],[-79.1786,39.3966],[-79.1812,39.3946],[-79.177,39.389],[-79.185,39.3852],[-79.1971,39.3886],[-79.2029,39.3779],[-79.2121,39.3708],[-79.2143,39.3635],[-79.2316,39.3646],[-79.2329,39.3596],[-79.2423,39.3594],[-79.2494,39.3556],[-79.2563,39.3572],[-79.2536,39.3462],[-79.2574,39.3425],[-79.2539,39.3372],[-79.2598,39.3342],[-79.2676,39.3363],[-79.2708,39.3285],[-79.282,39.323],[-79.2837,39.3096],[-79.2902,39.3035],[-79.2902,39.2993],[-79.3023,39.2996],[-79.3148,39.3044],[-79.3218,39.2999],[-79.3324,39.2999],[-79.34,39.2938],[-79.346,39.294],[-79.3438,39.2861],[-79.351,39.2852],[-79.3538,39.278],[-79.3762,39.2732],[-79.3819,39.2669],[-79.3878,39.2675],[-79.3874,39.2635],[-79.3929,39.2618],[-79.4002,39.2509],[-79.4121,39.2405],[-79.4203,39.2389],[-79.4205,39.2357],[-79.4251,39.2337],[-79.4256,39.2257],[-79.4546,39.2102],[-79.4655,39.2094],[-79.4732,39.2021],[-79.4869,39.206],[-79.4877,39.2799],[-79.4824,39.5317],[-79.4789,39.5317],[-79.4767,39.7211]],[[-77.1198,38.9343],[-77.1482,38.965],[-77.183,38.9688],[-77.1975,38.9668],[-77.2215,38.9713],[-77.23,38.9799],[-77.2348,38.9763],[-77.2446,38.9825],[-77.2557,39.0024],[-77.2446,39.0201],[-77.2484,39.0269],[-77.2747,39.0341],[-77.2931,39.0465],[-77.3403,39.063],[-77.3857,39.062],[-77.4582,39.0737],[-77.4858,39.1093],[-77.5199,39.1209],[-77.5246,39.1278],[-77.5273,39.1462],[-77.5164,39.1709],[-77.5052,39.182],[-77.4786,39.1892],[-77.475,39.1949],[-77.4736,39.2084],[-77.4599,39.2187],[-77.4577,39.225],[-77.4868,39.2476],[-77.5406,39.2649],[-77.5609,39.2862],[-77.5618,39.3019],[-77.5666,39.3061],[-77.5927,39.3013],[-77.6159,39.3027],[-77.651,39.3108],[-77.6758,39.3242],[-77.693,39.3184],[-77.7195,39.3213]],[[-77.1302,38.635],[-77.1359,38.6498],[-77.1325,38.6738],[-77.122,38.6858],[-77.0799,38.709],[-77.0796,38.7128],[-77.0532,38.7099],[-77.0433,38.719],[-77.039,38.7916]],[[-77.039,38.7916],[-76.9094,38.8928],[-77.041,38.9951],[-77.1198,38.9343]],[[-77.1198,38.9343],[-77.1012,38.9111],[-77.0902,38.9042],[-77.0682,38.8998],[-77.0583,38.8801],[-77.0541,38.8791],[-77.0491,38.8707],[-77.0454,38.8752],[-77.0406,38.8712],[-77.0317,38.8505],[-77.0345,38.8405],[-77.045,38.8385],[-77.0449,38.8347],[-77.0381,38.8286],[-77.039,38.7916]],[[-75.9939,37.9535],[-76.0465,37.9536]],[[-75.4234,39.8066],[-75.4633,39.8238],[-75.5184,39.8363],[-75.5798,39.8385],[-75.6347,39.8302],[-75.686,39.8111],[-75.717,39.792],[-75.7531,39.7576],[-75.7738,39.7222],[-75.7886,39.7222]],[[-75.7886,39.7222],[-75.7875,39.6375],[-75.6937,38.4601],[-75.402,38.4523],[-75.0489,38.4513]],[[-75.2425,38.027],[-75.6244,37.9942],[-75.6256,37.9898],[-75.6338,37.9845],[-75.6295,37.976],[-75.6382,37.9794],[-75.6482,37.9668]],[[-75.5562,39.6064],[-75.5594,39.6298]],[[-75.4151,39.8019],[-75.3418,39.8461],[-75.3232,39.8498],[-75.2721,39.8491],[-75.2434,39.8546],[-75.2214,39.8615],[-75.1893,39.8807],[-75.1437,39.885],[-75.1308,39.9002],[-75.1279,39.9118],[-75.1361,39.9339],[-75.1339,39.9542],[-75.1269,39.9611],[-75.1023,39.9724],[-75.0756,39.978],[-75.0642,39.986],[-75.0534,40.0046],[-75.0471,40.0099],[-75.0122,40.0207],[-74.9669,40.0527],[-74.9326,40.0688],[-74.909,40.0702],[-74.8621,40.0833],[-74.8546,40.0933],[-74.8351,40.1039],[-74.8287,40.1203],[-74.8225,40.1268],[-74.7821,40.1208],[-74.7589,40.134],[-74.7406,40.1355],[-74.7222,40.1499],[-74.7223,40.1606],[-74.7372,40.1776],[-74.7543,40.1852],[-74.7717,40.2153],[-74.7953,40.2294],[-74.8423,40.2505],[-74.8682,40.2952],[-74.8916,40.313],[-74.9083,40.3169],[-74.9397,40.338],[-74.9438,40.3426],[-74.9487,40.3648],[-74.9681,40.3991],[-74.9964,40.4105],[-75.0283,40.4039],[-75.0588,40.4181],[-75.0706,40.4552],[-75.0626,40.4896],[-75.0686,40.5422],[-75.1003,40.5678],[-75.1173,40.5732],[-75.1419,40.5753],[-75.1584,40.5653],[-75.1686,40.5641],[-75.1832,40.5674],[-75.1924,40.5743],[-75.1951,40.5797],[-75.1901,40.5904],[-75.1923,40.6027],[-75.2018,40.6172],[-75.1907,40.62],[-75.1886,40.6246],[-75.1907,40.6359],[-75.2005,40.6492],[-75.1909,40.6619],[-75.1828,40.666],[-75.1768,40.6757],[-75.1806,40.6794],[-75.1969,40.6813],[-75.2039,40.6915],[-75.1944,40.714],[-75.1864,40.7203],[-75.1821,40.7315],[-75.1953,40.7455],[-75.1965,40.7516],[-75.179,40.7619],[-75.1716,40.7777],[-75.1344,40.7738],[-75.1231,40.7867],[-75.1085,40.7911],[-75.1008,40.7998],[-75.1003,40.8076],[-75.0839,40.8245],[-75.0855,40.8301],[-75.097,40.8393],[-75.0958,40.8471],[-75.0767,40.8499],[-75.066,40.8476],[-75.0639,40.8554],[-75.051,40.8657],[-75.0537,40.8737],[-75.0753,40.8942],[-75.0793,40.9139],[-75.0955,40.9242],[-75.1178,40.953],[-75.1202,40.9687],[-75.1338,40.971],[-75.1355,40.9769],[-75.1306,40.9911],[-75.0842,41.016],[-75.075,41.0171],[-75.0271,41.0395],[-75.0264,41.0464],[-75.0171,41.0568],[-75.0131,41.0665],[-74.9684,41.0878],[-74.9668,41.0934],[-74.9694,41.0961],[-74.9848,41.0885],[-74.991,41.0886],[-74.9917,41.0923],[-74.9799,41.1104],[-74.9643,41.1142],[-74.9479,41.1236],[-74.9451,41.1291],[-74.9232,41.1381],[-74.9053,41.1557],[-74.8997,41.1662],[-74.8821,41.1808],[-74.8596,41.2191],[-74.8674,41.2278],[-74.8572,41.249],[-74.8469,41.2533],[-74.8463,41.2631],[-74.8301,41.2872],[-74.7926,41.3106],[-74.795,41.3204],[-74.7716,41.3251],[-74.7532,41.3461],[-74.7209,41.3474],[-74.6949,41.3574]],[[-74.6949,41.3574],[-74.4576,41.2482],[-74.302,41.1726],[-73.9027,40.9973],[-73.8936,40.9972],[-73.8961,40.9819],[-73.9298,40.8887],[-73.9528,40.8511],[-73.9632,40.8269],[-74.014,40.7576],[-74.0232,40.7199]],[[-74.0422,40.7],[-74.039,40.6976]],[[-73.659,40.9889],[-73.6603,41.0005],[-73.6553,41.0122],[-73.7278,41.1007],[-73.4827,41.2128],[-73.551,41.2954],[-73.521,41.6198],[-73.4873,42.0496]],[[-73.4873,42.0496],[-73.4328,42.0506],[-73.0533,42.0399],[-72.8135,42.0365],[-72.8167,41.9976],[-72.7667,42.003],[-72.7597,42.017],[-72.7622,42.0215],[-72.7575,42.0209],[-72.7517,42.0302],[-72.7575,42.0333],[-72.7558,42.0362],[-72.6959,42.0368],[-72.6079,42.0308],[-72.6069,42.025],[-72.5902,42.0247],[-72.5823,42.0247],[-72.5732,42.0301],[-72.5281,42.0343],[-71.8007,42.0236],[-71.7992,42.0081]],[[-73.4873,42.0496],[-73.4969,42.0497],[-73.5081,42.0863],[-73.265,42.7459]],[[-73.3431,45.0108],[-73.3546,44.9874],[-73.3502,44.9762],[-73.3382,44.9648],[-73.339,44.9177],[-73.3581,44.9013],[-73.3691,44.8667],[-73.3798,44.857],[-73.3814,44.845],[-73.3795,44.838],[-73.3696,44.8291],[-73.3549,44.8215],[-73.3354,44.8046],[-73.3332,44.7888],[-73.3357,44.7821],[-73.3471,44.773],[-73.3544,44.7553],[-73.3656,44.7418],[-73.366,44.6976],[-73.3613,44.6945],[-73.3701,44.6849],[-73.3672,44.6785],[-73.3718,44.677],[-73.3727,44.6687],[-73.3697,44.6635],[-73.3791,44.6568],[-73.378,44.6529],[-73.3845,44.6467],[-73.3786,44.6415],[-73.3868,44.6364],[-73.3865,44.6269],[-73.3902,44.6184],[-73.3829,44.6122],[-73.3768,44.5996],[-73.3818,44.5893],[-73.3744,44.5755],[-73.3568,44.5579],[-73.3388,44.548],[-73.339,44.5433],[-73.3295,44.5292],[-73.322,44.5253],[-73.3208,44.5136],[-73.3067,44.5003],[-73.2989,44.4713],[-73.3001,44.4547],[-73.2936,44.4406],[-73.296,44.4283],[-73.315,44.3885],[-73.3336,44.3723],[-73.3349,44.3644],[-73.3346,44.3569],[-73.324,44.3338],[-73.3242,44.31],[-73.3123,44.28],[-73.3129,44.2653],[-73.3236,44.2439],[-73.3305,44.2443],[-73.3432,44.238],[-73.3423,44.2345],[-73.3499,44.2304],[-73.362,44.2085],[-73.3906,44.1909],[-73.3897,44.1812],[-73.3969,44.1738],[-73.3955,44.1661],[-73.4024,44.1459],[-73.4158,44.1328],[-73.4113,44.1127],[-73.4292,44.0794],[-73.4377,44.045],[-73.4231,44.0328],[-73.4108,44.0269],[-73.4077,44.0213],[-73.406,44.0115],[-73.4126,43.98],[-73.4068,43.9673],[-73.4055,43.9488],[-73.4086,43.9329],[-73.3959,43.903],[-73.3835,43.891],[-73.3741,43.8756],[-73.382,43.855],[-73.3722,43.8453],[-73.3884,43.8324],[-73.3925,43.8208],[-73.3808,43.811],[-73.3764,43.7988],[-73.3575,43.7859],[-73.3506,43.7719],[-73.3697,43.7443],[-73.3706,43.7253],[-73.3859,43.7113],[-73.3955,43.6968],[-73.4047,43.6902],[-73.4041,43.6813],[-73.4155,43.6525],[-73.4265,43.6426],[-73.4279,43.6344],[-73.4177,43.6217],[-73.4237,43.6124],[-73.4216,43.603],[-73.4312,43.5883],[-73.4286,43.584],[-73.3958,43.5681],[-73.3914,43.5736],[-73.3834,43.5768],[-73.3853,43.5833],[-73.3824,43.5861],[-73.387,43.5895],[-73.3817,43.593],[-73.3835,43.5974],[-73.3772,43.5986],[-73.3725,43.6048],[-73.376,43.6126],[-73.3699,43.6191],[-73.3719,43.6245],[-73.3476,43.6225],[-73.3422,43.6261],[-73.3239,43.6276],[-73.3106,43.6241],[-73.3062,43.628],[-73.3021,43.6244],[-73.3003,43.6108],[-73.2922,43.6026],[-73.2928,43.5939],[-73.2969,43.5873],[-73.2921,43.5845],[-73.2946,43.579],[-73.2849,43.5793],[-73.2586,43.5649],[-73.2486,43.5539],[-73.2501,43.5434],[-73.2416,43.535],[-73.2419,43.5294],[-73.2477,43.5232],[-73.2565,43.2592],[-73.2787,42.8334],[-73.2854,42.8341],[-73.2871,42.8201],[-73.2837,42.8139],[-73.2909,42.8019],[-73.2764,42.746],[-73.265,42.7459]],[[-73.265,42.7459],[-72.4585,42.7269]],[[-72.4585,42.7269],[-72.4731,42.7459],[-72.4776,42.7612],[-72.4911,42.7725],[-72.4979,42.7729],[-72.5007,42.7677],[-72.508,42.7644],[-72.5161,42.7659],[-72.5148,42.7714],[-72.5084,42.7746],[-72.5089,42.7799],[-72.5184,42.7907],[-72.5396,42.8048],[-72.5486,42.842],[-72.5572,42.853],[-72.5542,42.86],[-72.5562,42.867],[-72.5528,42.885],[-72.5407,42.8894],[-72.5328,42.8961],[-72.5302,42.9116],[-72.5244,42.9156],[-72.5274,42.9431],[-72.5346,42.9499],[-72.5322,42.9549],[-72.5184,42.9632],[-72.4926,42.9676],[-72.4817,42.974],[-72.4738,42.972],[-72.4616,42.9829],[-72.4653,42.9896],[-72.4629,42.9969],[-72.4569,43.0013],[-72.4487,43.0012],[-72.4438,43.0062],[-72.4446,43.0106],[-72.457,43.0173],[-72.4624,43.0256],[-72.4603,43.0407],[-72.4674,43.0526],[-72.4362,43.0817],[-72.4352,43.0866],[-72.4431,43.1008],[-72.4331,43.1126],[-72.433,43.1197],[-72.4429,43.1302],[-72.4409,43.1358],[-72.452,43.1389],[-72.4571,43.1485],[-72.4518,43.1535],[-72.4526,43.1721],[-72.4434,43.1797],[-72.4503,43.1925],[-72.4377,43.2028],[-72.4405,43.219],[-72.4337,43.2334],[-72.4389,43.2442],[-72.4387,43.2529],[-72.4352,43.2585],[-72.4216,43.2634],[-72.4155,43.2714],[-72.3955,43.313],[-72.4104,43.3317],[-72.3901,43.3569],[-72.4039,43.3581],[-72.4134,43.3627],[-72.416,43.3765],[-72.4132,43.3843],[-72.4038,43.3919],[-72.3957,43.4385],[-72.3906,43.4512],[-72.3925,43.4674],[-72.3817,43.4801],[-72.3809,43.4934],[-72.3986,43.5134],[-72.3942,43.5274],[-72.3891,43.5283],[-72.3804,43.5409],[-72.3828,43.5617],[-72.3801,43.5736],[-72.3734,43.5797],[-72.3499,43.5877],[-72.3285,43.6008],[-72.3282,43.6068],[-72.3327,43.6103],[-72.3344,43.6193],[-72.3272,43.6305],[-72.3291,43.6356],[-72.3141,43.6428],[-72.314,43.6562],[-72.3043,43.6695],[-72.3051,43.6953],[-72.2996,43.7063],[-72.2718,43.7334],[-72.2342,43.746],[-72.2181,43.7657],[-72.2051,43.7711],[-72.2055,43.7846],[-72.1951,43.7923],[-72.1833,43.8082],[-72.1889,43.8213],[-72.1822,43.834],[-72.1829,43.8451],[-72.1879,43.8561],[-72.1828,43.8655],[-72.1679,43.8691],[-72.1736,43.8797],[-72.1727,43.8843],[-72.1592,43.8883],[-72.1513,43.9017],[-72.1204,43.9196],[-72.1169,43.9344],[-72.1186,43.946],[-72.1063,43.9495],[-72.0991,43.9574],[-72.1005,43.9632],[-72.0914,43.9655],[-72.1051,43.9699],[-72.1147,43.9683],[-72.1122,43.9868],[-72.117,43.9945],[-72.1044,44.0022],[-72.1057,44.0111],[-72.1025,44.0149],[-72.0976,44.0152],[-72.0933,44.0094],[-72.0901,44.0099],[-72.0952,44.0167],[-72.0953,44.0219],[-72.0903,44.024],[-72.0829,44.0216],[-72.0804,44.0292],[-72.0748,44.033],[-72.0783,44.0434],[-72.0625,44.0493],[-72.0691,44.0548],[-72.0676,44.058],[-72.0573,44.0583],[-72.0489,44.069],[-72.0525,44.0767],[-72.0318,44.0785],[-72.0451,44.0879],[-72.0337,44.0901],[-72.0309,44.0997],[-72.04,44.1034],[-72.0431,44.0972],[-72.0483,44.0969],[-72.0551,44.1104],[-72.0523,44.1199],[-72.0369,44.1253],[-72.0334,44.1311],[-72.0419,44.1376],[-72.0428,44.151],[-72.0389,44.1564],[-72.0435,44.1569],[-72.0424,44.1617],[-72.0476,44.1618],[-72.053,44.1679],[-72.0575,44.1794],[-72.0662,44.1898],[-72.0646,44.1969],[-72.059,44.2021],[-72.0595,44.2103],[-72.0525,44.2189],[-72.0536,44.226],[-72.0479,44.2385],[-72.0598,44.2569],[-72.0612,44.2634],[-72.0586,44.2691],[-72.0671,44.2682],[-72.0684,44.2713],[-72.0589,44.2862],[-72.0327,44.3025],[-72.0328,44.3204],[-72.0039,44.3241],[-71.9883,44.3298],[-71.9811,44.3375],[-71.9354,44.3358],[-71.9094,44.3484],[-71.8725,44.3366],[-71.8144,44.3545],[-71.8124,44.3573],[-71.8163,44.3674],[-71.8122,44.3715],[-71.8158,44.3755],[-71.8144,44.3819],[-71.8003,44.3843],[-71.8035,44.3919],[-71.7939,44.3993],[-71.7786,44.3998],[-71.762,44.407],[-71.7423,44.4014],[-71.7366,44.4094],[-71.7146,44.4096],[-71.7022,44.4138],[-71.6839,44.424],[-71.6827,44.4273],[-71.677,44.4268],[-71.6793,44.4343],[-71.6635,44.4378],[-71.6597,44.4415],[-71.6526,44.4605],[-71.6435,44.4606],[-71.639,44.4644],[-71.6474,44.4721],[-71.6328,44.4839],[-71.6255,44.4835],[-71.6263,44.4802],[-71.6349,44.4774],[-71.6318,44.474],[-71.627,44.4743],[-71.6178,44.4858],[-71.5993,44.4863],[-71.5939,44.501],[-71.589,44.4982],[-71.5859,44.5001],[-71.5878,44.5067],[-71.5813,44.5017],[-71.5768,44.5026],[-71.5943,44.5217],[-71.5829,44.5234],[-71.572,44.5382],[-71.5971,44.5538],[-71.5961,44.5609],[-71.5877,44.5658],[-71.5696,44.5628],[-71.559,44.5644],[-71.5578,44.5703],[-71.5477,44.5714],[-71.5544,44.5813],[-71.5465,44.5778],[-71.5354,44.5871],[-71.5401,44.5885],[-71.5383,44.5935],[-71.5474,44.5918],[-71.5461,44.5974],[-71.5554,44.5938],[-71.5503,44.6009],[-71.5622,44.6016],[-71.5539,44.6056],[-71.5565,44.6196],[-71.5542,44.6254],[-71.546,44.6231],[-71.5573,44.6284],[-71.5472,44.6304],[-71.5521,44.6301],[-71.5633,44.6366],[-71.5636,44.639],[-71.5579,44.6412],[-71.5628,44.6524],[-71.5788,44.651],[-71.5745,44.6548],[-71.5874,44.6597],[-71.5851,44.6631],[-71.587,44.6705],[-71.5815,44.6732],[-71.5961,44.6776],[-71.5942,44.6838],[-71.598,44.6918],[-71.5941,44.6969],[-71.6005,44.6987],[-71.6001,44.706],[-71.6187,44.7225],[-71.617,44.7283],[-71.6262,44.729],[-71.6251,44.7428],[-71.6319,44.7525],[-71.6167,44.7563],[-71.6118,44.7643],[-71.5951,44.7754],[-71.5925,44.7827],[-71.5797,44.7847],[-71.5713,44.7933],[-71.5731,44.7979],[-71.5687,44.8075],[-71.5769,44.8152],[-71.5735,44.8206],[-71.5624,44.8233],[-71.5569,44.8342],[-71.5511,44.837],[-71.5557,44.8491],[-71.5484,44.8547],[-71.5497,44.8615],[-71.5288,44.8735],[-71.5289,44.8769],[-71.5107,44.8904],[-71.5132,44.8948],[-71.5011,44.9044],[-71.4949,44.9043],[-71.496,44.9089],[-71.4934,44.9116],[-71.4999,44.9112],[-71.5045,44.9191],[-71.5154,44.9269],[-71.5135,44.9288],[-71.5171,44.9359],[-71.523,44.9393],[-71.518,44.9387],[-71.5149,44.9442],[-71.519,44.9501],[-71.5159,44.9528],[-71.5162,44.9641],[-71.5234,44.964],[-71.5189,44.9679],[-71.5231,44.9669],[-71.5366,44.9834],[-71.5413,44.9851],[-71.5381,44.9898],[-71.5327,44.9911],[-71.5371,44.9926],[-71.5362,44.9946],[-71.5248,45.0019],[-71.5043,45.0082],[-71.4897,45.0011],[-71.4806,45.0023],[-71.4767,45.0092],[-71.4646,45.0136],[-71.5011,45.0133]],[[-72.4585,42.7269],[-71.2942,42.697],[-71.2679,42.7259],[-71.2455,42.7426],[-71.2239,42.7467],[-71.1818,42.7376],[-71.1861,42.7907],[-71.1656,42.8087],[-71.1325,42.8214],[-71.0642,42.8063],[-71.0475,42.8441],[-71.0312,42.8591],[-70.9665,42.869],[-70.9308,42.8846],[-70.9149,42.8866],[-70.8861,42.8826],[-70.8486,42.8609],[-70.8173,42.8723]],[[-71.7992,42.0081],[-71.787,41.656],[-71.7977,41.4167],[-71.8169,41.4199],[-71.8426,41.4099],[-71.8421,41.3954],[-71.8327,41.3872],[-71.8306,41.3788],[-71.8379,41.3601],[-71.8357,41.3536],[-71.8313,41.3513],[-71.8294,41.3424],[-71.8605,41.3202]],[[-71.2248,41.7105],[-71.2614,41.7523],[-71.3279,41.7805],[-71.3322,41.7923],[-71.3407,41.7983],[-71.3389,41.8083],[-71.3472,41.8231],[-71.3352,41.8355],[-71.3422,41.8448],[-71.334,41.8623],[-71.3408,41.8816],[-71.3387,41.8984],[-71.3817,41.8932],[-71.3814,42.0188],[-71.7992,42.0081]],[[-71.1206,41.4974],[-71.1313,41.5923],[-71.1409,41.6074],[-71.1405,41.6239],[-71.1357,41.6284],[-71.1329,41.6601],[-71.1761,41.6681],[-71.176,41.6714],[-71.1956,41.6751]],[[-70.7038,43.0598],[-70.7065,43.0753],[-70.7381,43.0738],[-70.7419,43.0774],[-70.7564,43.08],[-70.7664,43.0927],[-70.7791,43.0959],[-70.8268,43.1271],[-70.8338,43.1469],[-70.8283,43.169],[-70.8235,43.1746],[-70.8283,43.1867],[-70.8193,43.193],[-70.8208,43.1998],[-70.8169,43.2146],[-70.8096,43.2254],[-70.8155,43.229],[-70.8179,43.2379],[-70.8387,43.2429],[-70.8413,43.2487],[-70.8392,43.2512],[-70.8433,43.2543],[-70.8582,43.2563],[-70.8632,43.2651],[-70.8703,43.2663],[-70.8743,43.2719],[-70.8828,43.2732],[-70.8865,43.2828],[-70.8992,43.2875],[-70.8963,43.2921],[-70.906,43.2917],[-70.9074,43.2936],[-70.9004,43.3014],[-70.9023,43.3049],[-70.9125,43.3083],[-70.912,43.3198],[-70.9308,43.3296],[-70.9327,43.3368],[-70.953,43.3333],[-70.9672,43.3438],[-70.9764,43.3673],[-70.9843,43.3761],[-70.9876,43.3895],[-70.9826,43.3978],[-70.9867,43.4035],[-70.9868,43.4143],[-70.971,43.4256],[-70.9688,43.4349],[-70.9612,43.4383],[-70.9669,43.4505],[-70.9614,43.4697],[-70.9742,43.4774],[-70.968,43.4808],[-70.9696,43.4862],[-70.9548,43.5098],[-70.9569,43.5127],[-70.9541,43.5226],[-70.9635,43.5368],[-70.9622,43.541],[-70.9535,43.5406],[-70.9508,43.551],[-70.9572,43.5614],[-70.9727,43.5703],[-70.9891,43.7924],[-71.0087,44.2588],[-71.031,44.6555],[-71.0769,45.2469],[-71.0839,45.3055]]]}}]}