{"type":"FeatureCollection","features":[{"type":"Feature","properties":{},"geometry":{"type":"MultiLineString","coordinates":[[[-124.2116,41.9985],[-123.6572,41.9951],[-123.624,41.9998],[-123.5693,42.0006],[-123.347,41.9993],[-123.1457,42.0088],[-123.044,42.0031],[-122.7131,42.0042],[-122.3785,42.0095],[-120.9804,41.993],[-119.9992,41.9949]],[[-123.5477,46.2591],[-123.5012,46.271],[-123.4796,46.2691],[-123.4687,46.2645],[-123.4476,46.2498],[-123.4276,46.2293],[-123.431,46.1816],[-123.3904,46.1544],[-123.3714,46.1464],[-123.2802,46.1448],[-123.1664,46.189],[-123.1159,46.1853],[-123.0413,46.1464],[-123.0042,46.1338],[-122.9627,46.1048],[-122.9041,46.0837],[-122.8845,46.0603],[-122.8781,46.0313],[-122.8562,46.0145],[-122.8376,45.9808],[-122.814,45.961],[-122.8062,45.9324],[-122.8115,45.9127],[-122.7981,45.8843],[-122.785,45.8677],[-122.7857,45.8442],[-122.796,45.825],[-122.7956,45.81],[-122.7695,45.7806],[-122.7615,45.7592],[-122.7601,45.7344],[-122.7725,45.6996],[-122.7745,45.6804],[-122.7638,45.6571],[-122.7381,45.6441],[-122.7133,45.6374],[-122.675,45.618],[-122.6439,45.6097],[-122.6026,45.6076],[-122.5481,45.5968],[-122.4793,45.5798],[-122.4539,45.5673],[-122.4387,45.5636],[-122.3803,45.5759],[-122.3528,45.5694],[-122.3315,45.5482],[-122.2949,45.5435],[-122.2667,45.5438],[-122.249,45.5477],[-122.2017,45.5641],[-122.1837,45.5777],[-122.1407,45.5845],[-122.1124,45.5814],[-122.1017,45.5835],[-122.0444,45.6095],[-122.0226,45.6152],[-122.0037,45.6159],[-121.983,45.6228],[-121.9635,45.6328],[-121.9557,45.6436],[-121.9351,45.6442],[-121.9083,45.6544],[-121.9009,45.662],[-121.9019,45.6707],[-121.8672,45.6933],[-121.8113,45.7068],[-121.7351,45.694],[-121.7074,45.6948],[-121.6684,45.7051],[-121.6312,45.7047],[-121.5331,45.7265],[-121.4992,45.7208],[-121.4628,45.7014],[-121.4236,45.694],[-121.4017,45.6929],[-121.3726,45.7031],[-121.3378,45.7049],[-121.3122,45.6999],[-121.2873,45.687],[-121.2158,45.6712],[-121.2004,45.6498],[-121.1952,45.6295],[-121.1966,45.6167],[-121.1838,45.6064],[-121.1679,45.6061],[-121.1455,45.6079],[-121.1395,45.612],[-121.132,45.6098],[-121.1171,45.6181],[-121.1201,45.6231],[-121.0849,45.6479],[-121.0644,45.6525],[-121.0074,45.6532],[-120.9835,45.6483],[-120.9531,45.6567],[-120.944,45.6564],[-120.9135,45.64],[-120.8956,45.6429],[-120.8557,45.6715],[-120.7889,45.6862],[-120.6894,45.7158],[-120.6689,45.7301],[-120.635,45.7458],[-120.5912,45.7465],[-120.5595,45.7383],[-120.5059,45.7],[-120.4824,45.6944],[-120.404,45.6992],[-120.2822,45.7212],[-120.2108,45.726],[-120.1705,45.762],[-120.1414,45.7732],[-120.0701,45.7852],[-119.9657,45.8244],[-119.9075,45.8281],[-119.8027,45.8475],[-119.7729,45.8456],[-119.6699,45.8569],[-119.6234,45.9056],[-119.6005,45.9196],[-119.5716,45.9255],[-119.5246,45.9086],[-119.4878,45.9063],[-119.4503,45.9174],[-119.3644,45.9216],[-119.3225,45.9332],[-119.2571,45.9399],[-119.1955,45.9279],[-119.1695,45.9276],[-119.1261,45.9329],[-119.0932,45.9427],[-119.0615,45.9585],[-119.0271,45.9691],[-119.0086,45.9793],[-118.9871,45.9999],[-117.9969,46.0008],[-116.916,45.9954]],[[-116.916,45.9954],[-116.9114,45.9889],[-116.8929,45.9764],[-116.8947,45.9697],[-116.8909,45.96],[-116.8805,45.9585],[-116.876,45.9544],[-116.8697,45.9238],[-116.8598,45.9073],[-116.8435,45.8923],[-116.8141,45.8776],[-116.7961,45.8585],[-116.7878,45.8443],[-116.7891,45.8335],[-116.7827,45.8254],[-116.7598,45.8162],[-116.7363,45.8262],[-116.7118,45.8263],[-116.6972,45.8201],[-116.6801,45.7936],[-116.6653,45.782],[-116.6463,45.7798],[-116.632,45.785],[-116.593,45.7785],[-116.5594,45.7552],[-116.5466,45.751],[-116.5357,45.7342],[-116.538,45.7149],[-116.5354,45.6917],[-116.524,45.6776],[-116.4879,45.6498],[-116.4878,45.6443],[-116.4825,45.6399],[-116.4828,45.6336],[-116.4723,45.6294],[-116.4729,45.6249],[-116.4635,45.6158],[-116.4636,45.6028],[-116.4831,45.5852],[-116.483,45.577],[-116.5028,45.5666],[-116.507,45.5584],[-116.5222,45.5556],[-116.5286,45.5511],[-116.5236,45.5466],[-116.5355,45.5251],[-116.5576,45.5032],[-116.5532,45.4959],[-116.5588,45.4812],[-116.5548,45.4629],[-116.564,45.4602],[-116.5882,45.4429],[-116.5974,45.4128],[-116.6191,45.3982],[-116.6738,45.3215],[-116.6722,45.2889],[-116.6745,45.2763],[-116.687,45.2679],[-116.7032,45.2408],[-116.7042,45.228],[-116.7097,45.2172],[-116.7095,45.203],[-116.7242,45.1715],[-116.7296,45.1421],[-116.7455,45.133],[-116.7466,45.1249],[-116.7528,45.1218],[-116.7546,45.114],[-116.7748,45.1055],[-116.7835,45.0936],[-116.7837,45.077],[-116.7973,45.0603],[-116.8261,45.0373],[-116.8427,45.0294],[-116.8479,45.0226],[-116.8446,45.0014],[-116.8568,44.9843],[-116.857,44.9752],[-116.8481,44.9719],[-116.839,44.984],[-116.8349,44.9858],[-116.8263,44.9825],[-116.8293,44.9752],[-116.8479,44.9648],[-116.8507,44.9581],[-116.8357,44.9406],[-116.8322,44.9314],[-116.8385,44.9236],[-116.8524,44.8876],[-116.8653,44.8706],[-116.876,44.8667],[-116.8877,44.8558],[-116.8982,44.8543],[-116.8962,44.8483],[-116.9001,44.8367],[-116.9058,44.8348],[-116.9311,44.8048],[-116.9338,44.7968],[-116.9307,44.7899],[-116.9347,44.7839],[-116.9709,44.7739],[-116.9989,44.7564],[-117.0138,44.7568],[-117.0214,44.7508],[-117.0383,44.7482],[-117.0478,44.7415],[-117.0505,44.7325],[-117.0623,44.7271],[-117.0618,44.7067],[-117.0791,44.6922],[-117.081,44.6737],[-117.0959,44.6647],[-117.095,44.652],[-117.0982,44.6407],[-117.1082,44.6271],[-117.1148,44.6249],[-117.1205,44.6147],[-117.1248,44.5838],[-117.1483,44.5644],[-117.1429,44.5572],[-117.1442,44.5456],[-117.1492,44.5362],[-117.161,44.5252],[-117.1816,44.523],[-117.1898,44.5134],[-117.2002,44.492],[-117.2089,44.4857],[-117.2251,44.4823],[-117.2258,44.4772],[-117.2156,44.4537],[-117.2151,44.4272],[-117.227,44.4056],[-117.2427,44.3965],[-117.243,44.391],[-117.2351,44.3739],[-117.1973,44.3474],[-117.1898,44.3366],[-117.2033,44.313],[-117.2168,44.3082],[-117.2226,44.2976],[-117.217,44.2884],[-117.1981,44.2738],[-117.1703,44.2589],[-117.1434,44.2583],[-117.134,44.263],[-117.121,44.2776],[-117.1042,44.2799],[-117.0946,44.271],[-117.0895,44.2582],[-117.0673,44.244],[-117.053,44.2291],[-117.0471,44.2297],[-117.0423,44.2428],[-117.0319,44.2486],[-116.9759,44.2428],[-116.972,44.2357],[-116.9739,44.2259],[-116.9704,44.2212],[-116.9737,44.208],[-116.9717,44.1973],[-116.9476,44.1913],[-116.9354,44.194],[-116.9254,44.1915],[-116.9157,44.1832],[-116.9001,44.1769],[-116.8958,44.1713],[-116.8941,44.1602],[-116.9019,44.1459],[-116.9112,44.14],[-116.9142,44.1273],[-116.9291,44.114],[-116.9283,44.1073],[-116.9337,44.1],[-116.9431,44.0941],[-116.9672,44.0909],[-116.9774,44.0854],[-116.9732,44.0494],[-116.9562,44.0429],[-116.9373,44.0294],[-116.9345,44.0212],[-116.9359,44.0127],[-116.9437,44.0032],[-116.9356,43.9869],[-116.9599,43.9829],[-116.9762,43.9747],[-116.9709,43.9683],[-116.9592,43.9664],[-116.9723,43.9584],[-116.9604,43.9546],[-116.9689,43.937],[-116.96,43.9306],[-116.9588,43.9232],[-116.9626,43.9175],[-116.9796,43.9153],[-116.9819,43.9125],[-116.9773,43.9058],[-116.9761,43.8948],[-116.9838,43.8808],[-116.9829,43.8677],[-117.02,43.859],[-117.0217,43.8562],[-117.0107,43.8498],[-117.0104,43.8448],[-117.0128,43.84],[-117.0252,43.8413],[-117.0329,43.83],[-117.0216,43.8194],[-117.0266,43.8081],[-117.0268,43.7329],[-117.0262,41.9999],[-118.1972,41.997],[-118.6964,41.9918],[-119.7901,41.9975],[-119.9992,41.9949]],[[-119.9992,41.9949],[-119.9994,40.8731],[-119.9962,40.2625],[-120.0065,39.2722],[-120.001,38.9996],[-119.3334,38.5383],[-118.7143,38.1022],[-117.8759,37.4973],[-117.5001,37.2204],[-117.0009,36.8477],[-116.542,36.5],[-115.8529,35.9697],[-115.2713,35.5127],[-114.6335,35.0019],[-114.6292,34.9859],[-114.6352,34.9651],[-114.6298,34.943],[-114.6333,34.9246],[-114.6309,34.9073],[-114.6367,34.8891],[-114.6344,34.8729],[-114.6239,34.8597],[-114.6007,34.8474],[-114.5868,34.8357],[-114.5765,34.8153],[-114.571,34.7943],[-114.5527,34.7669],[-114.5296,34.7508],[-114.5166,34.7367],[-114.491,34.7248],[-114.4875,34.7166],[-114.4705,34.7114],[-114.4652,34.6912],[-114.4505,34.6668],[-114.4582,34.6579],[-114.4415,34.6425],[-114.4387,34.6215],[-114.4242,34.6105],[-114.4243,34.6023],[-114.4365,34.5954],[-114.4224,34.5807],[-114.4052,34.5696],[-114.3808,34.5297],[-114.3781,34.5073],[-114.3824,34.4958],[-114.3817,34.476],[-114.3867,34.4579],[-114.3737,34.4469],[-114.3354,34.45],[-114.3261,34.4373],[-114.3123,34.4327],[-114.2948,34.4214],[-114.2887,34.4066],[-114.2643,34.4013],[-114.2343,34.3767],[-114.2261,34.3659],[-114.1995,34.3614],[-114.1769,34.3493],[-114.1572,34.3179],[-114.1383,34.3032],[-114.1367,34.2744],[-114.1312,34.2627],[-114.1355,34.2579],[-114.1646,34.259],[-114.1665,34.2496],[-114.1746,34.2473],[-114.178,34.24],[-114.2252,34.2036],[-114.2249,34.1939],[-114.2297,34.1869],[-114.2541,34.1738],[-114.2683,34.1702],[-114.2873,34.1705],[-114.3208,34.1386],[-114.353,34.1331],[-114.3665,34.1186],[-114.3906,34.1101],[-114.4059,34.1115],[-114.4159,34.1076],[-114.4342,34.0874],[-114.4393,34.0579],[-114.4349,34.0378],[-114.4383,34.0226],[-114.4502,34.0126],[-114.4659,34.011],[-114.4673,34.0052],[-114.458,33.9978],[-114.4601,33.9939],[-114.4679,33.9929],[-114.4999,33.9618],[-114.522,33.9556],[-114.5355,33.9347],[-114.5346,33.9254],[-114.5184,33.9175],[-114.5079,33.9038],[-114.5137,33.898],[-114.5259,33.901],[-114.5236,33.8936],[-114.5043,33.8769],[-114.503,33.868],[-114.5147,33.8586],[-114.5236,33.8601],[-114.5306,33.8554],[-114.52,33.8254],[-114.528,33.815],[-114.5049,33.7605],[-114.5045,33.751],[-114.5123,33.7342],[-114.4966,33.7192],[-114.4942,33.7079],[-114.4965,33.6969],[-114.524,33.6859],[-114.5315,33.6751],[-114.5303,33.6668],[-114.5141,33.6602],[-114.5183,33.6559],[-114.5332,33.6517],[-114.5238,33.6347],[-114.5311,33.6279],[-114.5312,33.6239],[-114.5221,33.6113],[-114.5292,33.6067],[-114.5406,33.5914],[-114.536,33.5692],[-114.5246,33.5522],[-114.5589,33.5318],[-114.561,33.5167],[-114.5695,33.5092],[-114.5916,33.4994],[-114.6017,33.4814],[-114.6229,33.4566],[-114.6223,33.4476],[-114.6296,33.4281],[-114.6433,33.4167],[-114.6584,33.413],[-114.6739,33.4183],[-114.688,33.4179],[-114.6957,33.4151],[-114.7017,33.4084],[-114.7201,33.4079],[-114.7253,33.405],[-114.7229,33.3988],[-114.7073,33.3825],[-114.698,33.3524],[-114.7009,33.337],[-114.708,33.3234],[-114.7236,33.3121],[-114.7312,33.3024],[-114.7217,33.287],[-114.6805,33.2736],[-114.6721,33.2585],[-114.6895,33.2464],[-114.6736,33.2231],[-114.6787,33.2034],[-114.6754,33.1855],[-114.6802,33.1697],[-114.6794,33.1595],[-114.6871,33.1422],[-114.6968,33.1312],[-114.7037,33.1138],[-114.7079,33.0974],[-114.7065,33.0882],[-114.689,33.084],[-114.687,33.071],[-114.6743,33.0572],[-114.6737,33.0419],[-114.6623,33.0327],[-114.6578,33.0338],[-114.646,33.0489],[-114.6396,33.0453],[-114.6283,33.0311],[-114.6188,33.0272],[-114.5898,33.0262],[-114.5783,33.0354],[-114.5717,33.0366],[-114.5236,33.031],[-114.5113,33.0235],[-114.4998,33.0039],[-114.4929,32.9718],[-114.4886,32.9699],[-114.4762,32.9752],[-114.469,32.9723],[-114.4677,32.9669],[-114.4691,32.9527],[-114.4809,32.9353],[-114.4766,32.9236],[-114.4644,32.9131],[-114.4629,32.9079],[-114.469,32.8452],[-114.4941,32.8233],[-114.5102,32.8164],[-114.5288,32.7963],[-114.5324,32.7769],[-114.5269,32.7571],[-114.5391,32.7569],[-114.5392,32.7498],[-114.5644,32.7496],[-114.5645,32.7423],[-114.5817,32.7423],[-114.5818,32.7349],[-114.6127,32.7345],[-114.6184,32.7282],[-114.6888,32.7377],[-114.7019,32.7455],[-114.7145,32.7304],[-114.7196,32.7188]],[[-117.0324,48.9992],[-117.0352,48.3709],[-117.0411,48.1249],[-117.0427,47.7609],[-117.0399,47.4778],[-117.0398,46.4254],[-117.0347,46.4183],[-117.0469,46.3796],[-117.0628,46.3653],[-117.0627,46.3536],[-117.056,46.3455],[-117.0307,46.3403],[-117.0238,46.336],[-117.0207,46.3148],[-117.0075,46.3053],[-116.9867,46.2967],[-116.9849,46.2897],[-116.9911,46.2763],[-116.9667,46.2569],[-116.9553,46.2309],[-116.9661,46.2095],[-116.9658,46.2034],[-116.9417,46.185],[-116.9336,46.1736],[-116.9276,46.1732],[-116.9219,46.1678],[-116.9226,46.1607],[-116.9344,46.1542],[-116.9358,46.1357],[-116.9503,46.1235],[-116.9553,46.1022],[-116.9595,46.0991],[-116.977,46.0967],[-116.9825,46.0894],[-116.9789,46.08],[-116.9574,46.0754],[-116.9427,46.061],[-116.9435,46.0544],[-116.9391,46.0449],[-116.9317,46.0397],[-116.9298,46.0236],[-116.923,46.0183],[-116.916,45.9954]]]}}]}